{
"type": "FeatureCollection",
"name": "ZONAS",
"crs": { "type": "name", "properties": { "name": "urn:ogc:def:crs:OGC:1.3:CRS84" } },
"features": [
{ "type": "Feature", "properties": { "id": 3, "Zona": "Zona III" }, "geometry": { "type": "MultiPolygon", "coordinates": [ [ [ [ -99.023011588828354, 19.599716706001981 ], [ -98.969771545311588, 19.600052155300908 ], [ -98.969771545311588, 19.598499741964936 ], [ -98.968055720045513, 19.594577855642481 ], [ -98.967075248464909, 19.589920615634568 ], [ -98.96609477688429, 19.587877966508287 ], [ -98.963398480037597, 19.584936551766443 ], [ -98.957433944588871, 19.578726898422559 ], [ -98.949916995804159, 19.573742834554437 ], [ -98.944442696145728, 19.566879533490145 ], [ -98.940193985963077, 19.56156864576182 ], [ -98.939785456137813, 19.556747993823802 ], [ -98.943625636495241, 19.554787050662572 ], [ -98.946975581062347, 19.556176052068441 ], [ -98.950488937559541, 19.560179644355948 ], [ -98.953348646336337, 19.55977111453069 ], [ -98.956698590903429, 19.557238229614107 ], [ -98.958414416169504, 19.555195580487826 ], [ -98.958986357924857, 19.552090753815886 ], [ -98.960211947400623, 19.547842043633224 ], [ -98.960538771260815, 19.543021391695209 ], [ -98.957842474414122, 19.538037327827087 ], [ -98.956616884938356, 19.537383680106679 ], [ -98.95539129546259, 19.539181211337805 ], [ -98.951142585279925, 19.541468978359237 ], [ -98.947629228782731, 19.545064040821487 ], [ -98.943870754390375, 19.547024983982713 ], [ -98.941419575438843, 19.546371336262304 ], [ -98.938151336836796, 19.543021391695209 ], [ -98.938314748766899, 19.537955621862036 ], [ -98.940193985963077, 19.533788617644429 ], [ -98.941991517194197, 19.531909380448255 ], [ -98.942645164914609, 19.529131377636514 ], [ -98.941746399299049, 19.526353374824776 ], [ -98.939785456137827, 19.524310725698498 ], [ -98.936844041395986, 19.524065607803344 ], [ -98.932840449108468, 19.522268076572217 ], [ -98.93055268208704, 19.518673014109968 ], [ -98.928591738925817, 19.514587715857413 ], [ -98.929081974716127, 19.509848769884446 ], [ -98.928101503135508, 19.506253707422196 ], [ -98.927529561380155, 19.501106231623975 ], [ -98.926140559974286, 19.49791969898698 ], [ -98.923035733302328, 19.492772223188762 ], [ -98.918378493294412, 19.487706453355589 ], [ -98.915600490482674, 19.483702861068085 ], [ -98.914865136797218, 19.477574913689249 ], [ -98.915763902412777, 19.472100614030822 ], [ -98.918787023119663, 19.463848311560657 ], [ -98.920339436455663, 19.458047188042027 ], [ -98.922545497512047, 19.454697243474929 ], [ -98.92401620488296, 19.447997354340735 ], [ -98.92360767505771, 19.441379171171594 ], [ -98.921319908036281, 19.439173110115213 ], [ -98.91796996346919, 19.432064691155762 ], [ -98.916744373993424, 19.42446603640601 ], [ -98.918787023119705, 19.420053914293248 ], [ -98.923689381022768, 19.417112499551404 ], [ -98.935291628060028, 19.41670396972615 ], [ -98.939703750172797, 19.419563678502939 ], [ -98.943380518600094, 19.421279503769014 ], [ -98.949590171943981, 19.42324044693024 ], [ -98.955227883532501, 19.424302624475906 ], [ -98.96258142038711, 19.425119684126418 ], [ -98.969036191626117, 19.423485564825395 ], [ -98.97263125408837, 19.421279503769014 ], [ -98.976553140410829, 19.41670396972615 ], [ -98.979494555152669, 19.41090284620752 ], [ -98.979576261117714, 19.404202957073323 ], [ -98.97859578953711, 19.397829891799336 ], [ -98.975572668830225, 19.391130002665143 ], [ -98.973039783913634, 19.388025175993199 ], [ -98.967483778290159, 19.384756937391153 ], [ -98.963970421792951, 19.381325286859006 ], [ -98.961437536876375, 19.376994870711297 ], [ -98.959558299680197, 19.370540099472255 ], [ -98.957842474414122, 19.365065799813831 ], [ -98.957760768449063, 19.360000029980661 ], [ -98.959885123540403, 19.35705861523882 ], [ -98.962826538282243, 19.35485255418244 ], [ -98.966666718639644, 19.354607436287285 ], [ -98.968627661800866, 19.355914731728106 ], [ -98.971814194437869, 19.357548851029126 ], [ -98.977288494096285, 19.357222027168923 ], [ -98.981782322174098, 19.356568379448515 ], [ -98.983416441475129, 19.357140321203872 ], [ -98.986602974112117, 19.358529322609741 ], [ -98.993466275176417, 19.358284204714586 ], [ -98.999349104660098, 19.358202498749538 ], [ -99.003761226772866, 19.358284204714586 ], [ -99.007601407130267, 19.358856146469947 ], [ -99.008826996606032, 19.358120792784486 ], [ -99.011931823277976, 19.355261084007694 ], [ -99.014873238019817, 19.352319669265853 ], [ -99.01634394539073, 19.350031902244421 ], [ -99.018386594517011, 19.350767255929881 ], [ -99.021654833119058, 19.352319669265853 ], [ -99.024923071721105, 19.350277020139572 ], [ -99.028436428218313, 19.347417311362783 ], [ -99.030805901204786, 19.344802720481148 ], [ -99.033665609981583, 19.342760071354867 ], [ -99.037996026129292, 19.342433247494665 ], [ -99.041100852801236, 19.339982068543129 ], [ -99.04420567947318, 19.339246714857669 ], [ -99.047392212110168, 19.339246714857669 ], [ -99.051150686502524, 19.337612595556646 ], [ -99.052621393873451, 19.334262650989551 ], [ -99.052621393873451, 19.330422470632147 ], [ -99.054418925104571, 19.3271542320301 ], [ -99.057932281601765, 19.325193288868874 ], [ -99.061690755994121, 19.321679932371676 ], [ -99.062916345469873, 19.318329987804582 ], [ -99.063896817050491, 19.314326395517075 ], [ -99.064632170735948, 19.306564328837219 ], [ -99.066511407932126, 19.305338739361449 ], [ -99.069289410743863, 19.304685091641041 ], [ -99.071332059870144, 19.302397324619609 ], [ -99.070024764429334, 19.300436381458383 ], [ -99.068962586883657, 19.297168142856336 ], [ -99.066347996002023, 19.29667790706603 ], [ -99.063569993190285, 19.294063316184392 ], [ -99.058912753182369, 19.29398161021934 ], [ -99.058667635287222, 19.296923024961181 ], [ -99.059648106867826, 19.300681499353534 ], [ -99.057932281601765, 19.303132678305069 ], [ -99.055399396685175, 19.303459502165275 ], [ -99.052948217733643, 19.305093621466298 ], [ -99.050088508956847, 19.305583857256604 ], [ -99.046983682284903, 19.305583857256604 ], [ -99.044614209298416, 19.304113149885683 ], [ -99.040610617010913, 19.301171735143843 ], [ -99.035953377002997, 19.299210791982613 ], [ -99.032358314540758, 19.300109557598176 ], [ -99.027701074532843, 19.301253441108894 ], [ -99.023615776280295, 19.300926617248688 ], [ -99.020756067503498, 19.298883968122411 ], [ -99.014791532054772, 19.29667790706603 ], [ -99.008581878710885, 19.29447184600965 ], [ -99.00343440291266, 19.293736492324189 ], [ -98.99657110184836, 19.291857255128011 ], [ -98.992158979735606, 19.290468253722143 ], [ -98.988563917273353, 19.290549959687194 ], [ -98.984315207090688, 19.293899904254289 ], [ -98.979331143222566, 19.296105965310669 ], [ -98.976634846375887, 19.296841318996133 ], [ -98.97385684356415, 19.298312026367054 ], [ -98.971323958647559, 19.299864439703025 ], [ -98.969444721451381, 19.302397324619609 ], [ -98.968300837940674, 19.305502151291552 ], [ -98.963398480037597, 19.306482622872167 ], [ -98.962418008456993, 19.308116742173191 ], [ -98.961519242841433, 19.310486215159674 ], [ -98.959885123540403, 19.314326395517078 ], [ -98.960048535470506, 19.319228753420145 ], [ -98.957188826693724, 19.322496992022192 ], [ -98.952776704580955, 19.324294523253315 ], [ -98.948446288433246, 19.32388599342806 ], [ -98.945341461761302, 19.320454342895911 ], [ -98.940112279998033, 19.315306867097689 ], [ -98.931655712615253, 19.309342331648956 ], [ -98.927774679275316, 19.308198448138242 ], [ -98.923893645935394, 19.30636006392459 ], [ -98.919149593339839, 19.302387111374102 ], [ -98.918822769479632, 19.297484753471036 ], [ -98.917842297899014, 19.293399455218477 ], [ -98.916126472632939, 19.290049510651379 ], [ -98.911463244175181, 19.290514660556816 ], [ -98.908037582092888, 19.294625044694246 ], [ -98.906980511169806, 19.292725381006683 ], [ -98.902731800987141, 19.292725381006683 ], [ -98.898401384839431, 19.292480263111528 ], [ -98.893499026936368, 19.288721788719176 ], [ -98.890312494299366, 19.286515727662795 ], [ -98.888678374998349, 19.279243896773245 ], [ -98.890557612194527, 19.271890359918643 ], [ -98.895868499922855, 19.263311233588272 ], [ -98.901996447301684, 19.258408875685205 ], [ -98.90575492169404, 19.253179693921933 ], [ -98.911065809422368, 19.247541982333402 ], [ -98.916866932940991, 19.240106739513749 ], [ -98.917357168731286, 19.23365196827471 ], [ -98.920216877508082, 19.230302023707612 ], [ -98.923975351900438, 19.227033785105569 ], [ -98.928305768048148, 19.224092370363728 ], [ -98.93753854209892, 19.223602134573419 ], [ -98.95510532458492, 19.223602134573419 ], [ -98.968709367765996, 19.225277106856975 ], [ -98.973489166721492, 19.226298431420112 ], [ -98.97880005444982, 19.227401461948304 ], [ -98.983743265335406, 19.22846363949397 ], [ -98.986337429725779, 19.230056905812464 ], [ -98.988196240430696, 19.230322450198884 ], [ -98.989462682888984, 19.231078230375605 ], [ -98.99058613990843, 19.23256936423779 ], [ -98.99119893464632, 19.234019645117446 ], [ -98.993016892368715, 19.236593383016558 ], [ -98.994896129564879, 19.242251521096346 ], [ -98.996203425005689, 19.244580141100304 ], [ -98.998082662201867, 19.246214260401327 ], [ -98.998940574834904, 19.248910557248013 ], [ -99.00016616431067, 19.249564204968426 ], [ -99.003638667825342, 19.250667235496614 ], [ -99.006743494497286, 19.251892824972384 ], [ -99.009684909239127, 19.253690356203506 ], [ -99.015976268548059, 19.255733005329787 ], [ -99.021613980136593, 19.258511008141525 ], [ -99.026434632074597, 19.259654891652239 ], [ -99.033461345069, 19.259654891652239 ], [ -99.037138113496297, 19.259082949896882 ], [ -99.040242940168241, 19.256713476910399 ], [ -99.044246532455759, 19.256713476910399 ], [ -99.049557420184087, 19.255569593399684 ], [ -99.052743952821075, 19.254262297958867 ], [ -99.056175603353225, 19.253853768133609 ], [ -99.058953606164962, 19.254997651644327 ], [ -99.06042431353589, 19.254344003923919 ], [ -99.063365728277731, 19.254670827784121 ], [ -99.067042496705028, 19.255406181469581 ], [ -99.070555853202222, 19.253036708483098 ], [ -99.072353384433356, 19.249114822160642 ], [ -99.072108266538194, 19.246745349174162 ], [ -99.075294799175197, 19.246336819348905 ], [ -99.079461803392803, 19.245846583558599 ], [ -99.081667864449187, 19.245846583558599 ], [ -99.085017809016279, 19.246255113383853 ], [ -99.089429931129047, 19.246091701453754 ], [ -99.095557878507876, 19.247970938649928 ], [ -99.101359002026513, 19.247480702859622 ], [ -99.105689418174222, 19.251647707077229 ], [ -99.108549126951004, 19.254098886028768 ], [ -99.112716131168611, 19.25875612603668 ], [ -99.117128253281379, 19.262106070603778 ], [ -99.122030611184442, 19.266354780786436 ], [ -99.123664730485459, 19.268969371668074 ], [ -99.123746436450517, 19.274852201151756 ], [ -99.125298849786489, 19.280081382915029 ], [ -99.126524439262255, 19.283594739412226 ], [ -99.126197615402049, 19.287925155559936 ], [ -99.124318378205871, 19.291356806092086 ], [ -99.121703787324236, 19.297729871366077 ], [ -99.12137696346403, 19.301651757688532 ], [ -99.118190430827042, 19.308106528927571 ], [ -99.114840486259951, 19.311211355599514 ], [ -99.107241831510194, 19.313254004725795 ], [ -99.10503577045381, 19.316930773153096 ], [ -99.102993121327529, 19.320444129650294 ], [ -99.100787060271145, 19.322486778776572 ], [ -99.097273703773951, 19.322323366846472 ], [ -99.091472580255328, 19.320525835615346 ], [ -99.087877517793075, 19.320689247545449 ], [ -99.08362880761041, 19.320607541580397 ], [ -99.078726449707347, 19.321669719126064 ], [ -99.075049681280049, 19.322078248951318 ], [ -99.072271678468297, 19.325918429308722 ], [ -99.068840027936162, 19.329513491770971 ], [ -99.065081553543806, 19.334415849674041 ], [ -99.064999847578747, 19.338010912136291 ], [ -99.069166851796368, 19.343403505829663 ], [ -99.069248557761426, 19.346916862326861 ], [ -99.068676616006073, 19.352309456020237 ], [ -99.071291206887707, 19.354760634971768 ], [ -99.075621623035417, 19.354515517076617 ], [ -99.078072801986949, 19.355332576727129 ], [ -99.078726449707361, 19.356721578132998 ], [ -99.081994688309408, 19.3570484019932 ], [ -99.083792219540527, 19.358437403399069 ], [ -99.085099514981351, 19.360725170420501 ], [ -99.087714105862986, 19.362032465861322 ], [ -99.092453051835946, 19.361542230071013 ], [ -99.096865173948714, 19.361542230071013 ], [ -99.100705354306115, 19.361542230071013 ], [ -99.103728475013014, 19.359172757084533 ], [ -99.103646769047955, 19.35484234093682 ], [ -99.10536259431403, 19.35124727847457 ], [ -99.108058891160724, 19.34904121741819 ], [ -99.108630832916077, 19.345772978816143 ], [ -99.110428364147197, 19.342831564074302 ], [ -99.112471013273478, 19.336867028625569 ], [ -99.115739251875524, 19.334824379499292 ], [ -99.117373371176555, 19.335641439149803 ], [ -99.121050139603852, 19.33596826301001 ], [ -99.123337906625281, 19.33833773599649 ], [ -99.125870791541871, 19.338827971786799 ], [ -99.128321970493403, 19.33833773599649 ], [ -99.129302442074021, 19.339236501612053 ], [ -99.131835326990597, 19.340870620913076 ], [ -99.134368211907187, 19.341442562668433 ], [ -99.137473038579131, 19.340625503017922 ], [ -99.14016933542581, 19.343158387934508 ], [ -99.142130278587047, 19.344383977410274 ], [ -99.14229369051715, 19.348632687592936 ], [ -99.144172927713328, 19.354025281286312 ], [ -99.146542400699801, 19.355332576727129 ], [ -99.1495655214067, 19.357293519888355 ], [ -99.151117934742672, 19.359581286909787 ], [ -99.153160583868953, 19.364483644812857 ], [ -99.155856880715632, 19.367098235694492 ], [ -99.156265410540897, 19.371020122016947 ], [ -99.155530056855426, 19.374533478514149 ], [ -99.155448350890367, 19.375227979217083 ], [ -99.157000764226339, 19.377229775360835 ], [ -99.159574502125452, 19.37894560062691 ], [ -99.161372033356585, 19.381805309403699 ], [ -99.162229945989623, 19.386585108359188 ], [ -99.162638475814873, 19.391446613279733 ], [ -99.164640271958618, 19.394306322056522 ], [ -99.1674999807354, 19.397452001710992 ], [ -99.168235334420871, 19.400189151540204 ], [ -99.168684717228643, 19.404437861722862 ], [ -99.170318836529674, 19.407175011552077 ], [ -99.172402338638491, 19.40925851366088 ], [ -99.175425459345391, 19.411178603839581 ], [ -99.176365077943473, 19.412771870158078 ], [ -99.176651048821157, 19.413956606651322 ], [ -99.175425459345391, 19.415590725952342 ], [ -99.173954751974463, 19.418001051921351 ], [ -99.173668781096779, 19.420370524907835 ], [ -99.174649252677398, 19.422413174034112 ], [ -99.175588871275494, 19.424169852282713 ], [ -99.176487636891054, 19.426498472286671 ], [ -99.177059578646393, 19.428581974395478 ], [ -99.175507165310421, 19.430706329486807 ], [ -99.172484044603536, 19.433157508438342 ], [ -99.171585278987976, 19.435772099319976 ], [ -99.171503573022918, 19.441001281083249 ], [ -99.170686513372402, 19.444187813720244 ], [ -99.168235334420871, 19.448273111972803 ], [ -99.164803683888707, 19.452848646015667 ], [ -99.161208621426454, 19.456688826373071 ], [ -99.15851232457976, 19.459957064975118 ], [ -99.157940382824407, 19.464205775157776 ], [ -99.158920854405039, 19.470660546396818 ], [ -99.157940382824421, 19.47384707903381 ], [ -99.155734321768037, 19.477197023600908 ], [ -99.156469675453494, 19.481364027818515 ], [ -99.155979439663199, 19.484632266420562 ], [ -99.153364848781564, 19.486429797651688 ], [ -99.149933198249414, 19.486429797651688 ], [ -99.14682837157747, 19.487900505022608 ], [ -99.143723544905512, 19.490433389939191 ], [ -99.141190659988936, 19.492639450995572 ], [ -99.140618718233569, 19.495744277667516 ], [ -99.14086383612873, 19.499421046094817 ], [ -99.140537012268524, 19.504241698032835 ], [ -99.136941949806271, 19.508980644005799 ], [ -99.133183475413915, 19.509389173831057 ], [ -99.131304238217751, 19.507019700844573 ], [ -99.129220736108962, 19.503261226452221 ], [ -99.126156762419541, 19.499788722937545 ], [ -99.123419612590325, 19.499053369252085 ], [ -99.119416020302822, 19.497214985038436 ], [ -99.117822753984328, 19.495540012754887 ], [ -99.117005694333812, 19.491658979414961 ], [ -99.116229487665819, 19.4891669474809 ], [ -99.115984369770672, 19.486593209581788 ], [ -99.115820957840569, 19.484428001507933 ], [ -99.114227691522075, 19.483692647822473 ], [ -99.112511866256, 19.483202412032167 ], [ -99.110877746954984, 19.484713972385613 ], [ -99.108875950811196, 19.486797474494416 ], [ -99.106710742737349, 19.488840123620694 ], [ -99.10319738624014, 19.48888097660322 ], [ -99.101154737113873, 19.488554152743017 ], [ -99.098907823074967, 19.487941358005134 ], [ -99.097763939564274, 19.489044388533323 ], [ -99.097110291843862, 19.49063765485182 ], [ -99.096824320966192, 19.492598598013046 ], [ -99.095843849385574, 19.495294894859736 ], [ -99.094781671839911, 19.496479631352976 ], [ -99.092902434643733, 19.497623514863694 ], [ -99.091472580255285, 19.50064663557059 ], [ -99.093923759206831, 19.502362460836661 ], [ -99.097845645529276, 19.505058757683351 ], [ -99.099724882725454, 19.508081878390243 ], [ -99.101195590096381, 19.513883001908873 ], [ -99.098335881319585, 19.515762239105051 ], [ -99.094924657278725, 19.515782665596312 ], [ -99.092167080958248, 19.515435415244845 ], [ -99.090328696744592, 19.514025987347711 ], [ -99.087698785994476, 19.512116110414642 ], [ -99.086963432309005, 19.512688052169999 ], [ -99.0868612998527, 19.515323069542898 ], [ -99.087402601871119, 19.518315550512899 ], [ -99.087729425731339, 19.521073126833379 ], [ -99.083725833443836, 19.523360893854811 ], [ -99.082255126072923, 19.528099839827775 ], [ -99.080947830632098, 19.531613196324972 ], [ -99.078333239750464, 19.531613196324972 ], [ -99.075963766763991, 19.531041254569615 ], [ -99.072532116231841, 19.531531490359921 ], [ -99.068446817979279, 19.533002197730841 ], [ -99.065832227097644, 19.534799728961964 ], [ -99.062727400425715, 19.537904555633908 ], [ -99.057825042522637, 19.537904555633908 ], [ -99.055292157606047, 19.538966733179574 ], [ -99.050062975842778, 19.544604444768098 ], [ -99.050471505668042, 19.549506802671164 ], [ -99.048673974436909, 19.551712863727545 ], [ -99.042300909162932, 19.558657870756885 ], [ -99.036887888978285, 19.561966962341454 ], [ -99.030187999844102, 19.569483911126156 ], [ -99.025612465801231, 19.576020388330246 ], [ -99.024141758430318, 19.581249570093515 ], [ -99.023814934570112, 19.590237226249137 ], [ -99.023011588828354, 19.599716706001981 ] ], [ [ -99.030719088617104, 19.379599248347397 ], [ -99.033303039761677, 19.378800061876664 ], [ -99.036121895555937, 19.376124191521239 ], [ -99.037490470470544, 19.374592204676528 ], [ -99.036836822750132, 19.372672114497828 ], [ -99.035202703449116, 19.371548657478375 ], [ -99.033609437130622, 19.37130353958322 ], [ -99.031914038355808, 19.37107884817933 ], [ -99.030811007827623, 19.36838255133264 ], [ -99.029871389229527, 19.366625873084043 ], [ -99.028318975893569, 19.365175592204384 ], [ -99.026766562557597, 19.364235973606299 ], [ -99.023866000798279, 19.36425640009756 ], [ -99.021659939741895, 19.365318577643226 ], [ -99.020250511844765, 19.367708477120971 ], [ -99.020291364827287, 19.369506008352094 ], [ -99.020822453600118, 19.373448321165814 ], [ -99.021042038381239, 19.375074780532596 ], [ -99.0228753159722, 19.377229775360913 ], [ -99.026143554574247, 19.37853707080173 ], [ -99.030719088617104, 19.379599248347397 ] ], [ [ -99.082724935372113, 19.441409810908556 ], [ -99.085666350113954, 19.438795220026918 ], [ -99.086646821694572, 19.435853805285081 ], [ -99.08599317397416, 19.434056274053955 ], [ -99.083541995022628, 19.436997688795795 ], [ -99.080437168350684, 19.438468396166716 ], [ -99.078312813259359, 19.439122043887124 ], [ -99.078312813259359, 19.441736634768759 ], [ -99.082724935372113, 19.441409810908556 ] ] ] ] } },
{ "type": "Feature", "properties": { "id": 2, "Zona": "Zona II" }, "geometry": { "type": "MultiPolygon", "coordinates": [ [ [ [ -98.850349815705329, 19.275195247054889 ], [ -98.850349815705329, 19.275195247054889 ], [ -98.85033274427569, 19.273034243429496 ], [ -98.851885157611648, 19.272094624831407 ], [ -98.853846100772884, 19.270664770443013 ], [ -98.855030837266128, 19.268785533246838 ], [ -98.8554802200739, 19.267110560963289 ], [ -98.853069894104891, 19.266211795347729 ], [ -98.853029041122369, 19.265108764819537 ], [ -98.854418042528238, 19.264577676046706 ], [ -98.85637898568946, 19.265394735697217 ], [ -98.857767987095329, 19.26306611569326 ], [ -98.856869221479769, 19.261105172532034 ], [ -98.855929602881687, 19.259716171126165 ], [ -98.856746662532188, 19.258082051825141 ], [ -98.857972252007968, 19.257060727262004 ], [ -98.859933195169191, 19.257060727262004 ], [ -98.861975844295472, 19.255263196030878 ], [ -98.863446551666385, 19.250483397075389 ], [ -98.867041614128638, 19.247092599525768 ], [ -98.871208618346245, 19.244396302679082 ], [ -98.872761031682217, 19.241863417762499 ], [ -98.872556766769591, 19.238268355300249 ], [ -98.877173153794956, 19.234795851785577 ], [ -98.882565747488329, 19.230914818445648 ], [ -98.88934734258757, 19.227728285808656 ], [ -98.893228375927507, 19.222376545097806 ], [ -98.894208847508111, 19.21951683632102 ], [ -98.899397176288886, 19.215349832103414 ], [ -98.902256885065668, 19.212898653151882 ], [ -98.903278209628809, 19.207342647528407 ], [ -98.904585505069633, 19.203870144013734 ], [ -98.905484270685193, 19.201623229974828 ], [ -98.907608625776518, 19.2012555531321 ], [ -98.909937245780483, 19.202195171730185 ], [ -98.912633542627162, 19.203951849978786 ], [ -98.915779222281628, 19.206566440860421 ], [ -98.919415137726403, 19.207260941563355 ], [ -98.92448090755957, 19.206688999807998 ], [ -98.931099090728722, 19.20705667665073 ], [ -98.937472156002713, 19.207383500510936 ], [ -98.939535231620241, 19.206770705773057 ], [ -98.940801674078543, 19.2081188541964 ], [ -98.942599205309662, 19.206648146825479 ], [ -98.946561944614643, 19.206117058052648 ], [ -98.94880885865355, 19.206852411738105 ], [ -98.949666771286587, 19.207138382615785 ], [ -98.950851507779831, 19.205667675244865 ], [ -98.952363068133266, 19.204319526821521 ], [ -98.954324011294503, 19.205545116297287 ], [ -98.955917277612997, 19.207220088580836 ], [ -98.957224573053807, 19.207751177353668 ], [ -98.959389781127669, 19.206362175947799 ], [ -98.961309871306369, 19.20570852822739 ], [ -98.963515932362753, 19.205463410332236 ], [ -98.964700668855983, 19.207506059458517 ], [ -98.967110994824992, 19.209998091392574 ], [ -98.970256674479458, 19.211754769641171 ], [ -98.97683400466606, 19.213797418767449 ], [ -98.977814476246678, 19.218127834915158 ], [ -98.983452187835198, 19.221477779482253 ], [ -98.98884478152857, 19.221559485447305 ], [ -98.990969136619896, 19.226135019490165 ], [ -98.991704490305366, 19.229648375987363 ], [ -98.992031314165573, 19.234387321960327 ], [ -98.994155669256898, 19.237573854597319 ], [ -98.996443436278327, 19.243538390046051 ], [ -98.99954826295027, 19.246234686892738 ], [ -98.99954826295027, 19.248604159879218 ], [ -99.002571383657155, 19.250074867250138 ], [ -99.005594504364055, 19.249829749354987 ], [ -99.009434684721455, 19.251708986551161 ], [ -99.013029747183694, 19.253996753572594 ], [ -99.016543103680903, 19.254650401293002 ], [ -99.021282049653863, 19.257183286209585 ], [ -99.024223464395703, 19.258735699545557 ], [ -99.029861175984223, 19.258817405510609 ], [ -99.034191592131933, 19.258817405510609 ], [ -99.037704948629141, 19.255875990768768 ], [ -99.043669484077867, 19.255385754978462 ], [ -99.046774310749811, 19.254732107258054 ], [ -99.050532785142153, 19.252035810411364 ], [ -99.054863201289862, 19.250401691110344 ], [ -99.058703381647263, 19.252035810411364 ], [ -99.062870385864869, 19.253261399887133 ], [ -99.066547154292181, 19.253179693922082 ], [ -99.069406863068963, 19.250319985145293 ], [ -99.070142216754419, 19.247950512158809 ], [ -99.068508097453403, 19.245254215312123 ], [ -99.070959276404935, 19.243865213906254 ], [ -99.076596987993454, 19.245009097416972 ], [ -99.077373194661448, 19.244682273556766 ], [ -99.079824373612979, 19.244437155661611 ], [ -99.080968257123686, 19.242803036360591 ], [ -99.083419436075232, 19.242884742325643 ], [ -99.08468587853352, 19.244845685486869 ], [ -99.087218763450096, 19.245581039172329 ], [ -99.089465677489002, 19.244110331801409 ], [ -99.091018090824974, 19.243048154255742 ], [ -99.091916856440534, 19.245867010050006 ], [ -99.093387563811461, 19.246643216717992 ], [ -99.096165566623199, 19.246888334613146 ], [ -99.099556364172813, 19.245662745137381 ], [ -99.102416072949609, 19.244804832504343 ], [ -99.104091045233147, 19.246071274962635 ], [ -99.104091045233147, 19.24852245391417 ], [ -99.105030663831243, 19.249502925494781 ], [ -99.107604401730342, 19.249625484442358 ], [ -99.109851315769248, 19.252035810411368 ], [ -99.112220788755735, 19.252771164096828 ], [ -99.114345143847061, 19.253343105852185 ], [ -99.115162203497576, 19.254772960240579 ], [ -99.116632910868489, 19.255794284803716 ], [ -99.117572529466571, 19.257836933929994 ], [ -99.117449970519004, 19.259430200248492 ], [ -99.118716412977292, 19.261064319549515 ], [ -99.120309679295787, 19.262085644112652 ], [ -99.121616974736611, 19.263597204466098 ], [ -99.123087682107524, 19.263801469378727 ], [ -99.124149859653187, 19.262208203060229 ], [ -99.12623336176199, 19.262739291833061 ], [ -99.125375449128953, 19.267355678858451 ], [ -99.127091274395028, 19.269194063072099 ], [ -99.128194304923227, 19.27021538763524 ], [ -99.128439422818374, 19.272053771848888 ], [ -99.129419894398993, 19.276343335014072 ], [ -99.129828424224243, 19.27883536694813 ], [ -99.131135719665068, 19.281082280987036 ], [ -99.131952779315583, 19.282267017480279 ], [ -99.133913722476805, 19.282185311515228 ], [ -99.134199693354489, 19.280878016074411 ], [ -99.135139311952571, 19.279693279581167 ], [ -99.136691725288543, 19.278917072913181 ], [ -99.138611815467243, 19.278753660983082 ], [ -99.139102051257552, 19.278181719227721 ], [ -99.140654464593524, 19.279203043790861 ], [ -99.139796551960487, 19.28059204519673 ], [ -99.139796551960487, 19.282348723445327 ], [ -99.140777023541105, 19.283410900990994 ], [ -99.142697113719805, 19.284513931519182 ], [ -99.144004409160615, 19.284759049414337 ], [ -99.143963556178093, 19.287741317138703 ], [ -99.144535497933447, 19.289212024509624 ], [ -99.145515969514065, 19.291336379600949 ], [ -99.146087911269419, 19.292929645919447 ], [ -99.149519561801569, 19.293133910832072 ], [ -99.149887238644297, 19.291663203461152 ], [ -99.151357946015224, 19.291949174338832 ], [ -99.152746947421093, 19.293624146622378 ], [ -99.152297564613306, 19.295380824870978 ], [ -99.149356149871466, 19.29664726732927 ], [ -99.146619000042264, 19.301059389442035 ], [ -99.14380014424799, 19.303428862428515 ], [ -99.141716642139187, 19.305961747345101 ], [ -99.140817876523627, 19.307187336820867 ], [ -99.140491052663421, 19.310741546300591 ], [ -99.141348965296444, 19.313478696129799 ], [ -99.143391614422725, 19.3171554645571 ], [ -99.141839201086754, 19.320260291229044 ], [ -99.141920907051812, 19.322466352285421 ], [ -99.143718438282932, 19.324182177551496 ], [ -99.143881850213035, 19.327123592293336 ], [ -99.144862321793653, 19.329819889140023 ], [ -99.144617203898491, 19.331454008441042 ], [ -99.146333029164566, 19.332271068091554 ], [ -99.147885442500538, 19.333578363532371 ], [ -99.151071975137526, 19.331617420371145 ], [ -99.154095095844426, 19.333905187392578 ], [ -99.153768271984219, 19.335294188798446 ], [ -99.152379270578351, 19.3357027186237 ], [ -99.153482301106536, 19.337459396872301 ], [ -99.15478959654736, 19.336887455116944 ], [ -99.156015186023126, 19.338930104243222 ], [ -99.157404187428995, 19.340400811614142 ], [ -99.170967377627477, 19.34076848845687 ], [ -99.173622821491634, 19.341830666002537 ], [ -99.177544707814093, 19.343301373373453 ], [ -99.181997682909412, 19.347059847765806 ], [ -99.183509243262847, 19.350164674437746 ], [ -99.182692183612346, 19.354168266725253 ], [ -99.180241004660814, 19.357395652344771 ], [ -99.179342239045241, 19.360132802173982 ], [ -99.179219680097631, 19.363033363933297 ], [ -99.177912384656807, 19.366710132360598 ], [ -99.175992294478107, 19.369038752364556 ], [ -99.176196559390732, 19.372021020088919 ], [ -99.179505650975301, 19.376147171324003 ], [ -99.18220194782198, 19.378761762205638 ], [ -99.182978154489987, 19.383827532038801 ], [ -99.182324506769575, 19.391507892753605 ], [ -99.182324506769575, 19.398452899782949 ], [ -99.183795214140488, 19.400332136979124 ], [ -99.185511039406563, 19.403355257686016 ], [ -99.185429333441519, 19.409891734890103 ], [ -99.183550096245341, 19.41389532717761 ], [ -99.180363563608338, 19.415774564373784 ], [ -99.178239208517013, 19.416836741919447 ], [ -99.176114853425688, 19.418307449290367 ], [ -99.176931913076203, 19.420595216311799 ], [ -99.17897456220247, 19.420431804381696 ], [ -99.181997682909369, 19.420104980521494 ], [ -99.185020803616254, 19.420023274556442 ], [ -99.18967804362417, 19.420922040172005 ], [ -99.193027988191261, 19.422474453507974 ], [ -99.195969402933102, 19.424843926494457 ], [ -99.197766934164235, 19.427540223341143 ], [ -99.199401053465252, 19.431135285803393 ], [ -99.199319347500207, 19.433504758789873 ], [ -99.197521816269088, 19.437181527217174 ], [ -99.195070637317556, 19.440858295644471 ], [ -99.195070637317556, 19.445107005827129 ], [ -99.195479167142807, 19.453522720227394 ], [ -99.197194992408882, 19.456709252864389 ], [ -99.200136407150723, 19.460957963047044 ], [ -99.203976587508123, 19.466513968670519 ], [ -99.210921594537481, 19.480567394659314 ], [ -99.211330124362732, 19.485714870457532 ], [ -99.211411830327791, 19.491842817836364 ], [ -99.209124063306362, 19.497235411529736 ], [ -99.207244826110184, 19.502546299258061 ], [ -99.206999708215037, 19.508674246636893 ], [ -99.204466823298446, 19.512922956819551 ], [ -99.199237641535177, 19.515129017875932 ], [ -99.19596940293313, 19.516763137176955 ], [ -99.195315755212732, 19.520766729464459 ], [ -99.194743813457379, 19.524933733682065 ], [ -99.192210928540788, 19.528610502109366 ], [ -99.190086573449463, 19.531551916851203 ], [ -99.190168279414507, 19.53482015545325 ], [ -99.193518223981613, 19.535800627033861 ], [ -99.198420581884676, 19.535228685278504 ], [ -99.202750998032386, 19.533921389837687 ], [ -99.207735061900507, 19.531143387025949 ], [ -99.21312765559388, 19.529999503515235 ], [ -99.218356837357149, 19.530326327375438 ], [ -99.220481192448474, 19.532205564571612 ], [ -99.217131247881383, 19.535800627033861 ], [ -99.21312765559388, 19.539150571600956 ], [ -99.210513064712245, 19.542091986342797 ], [ -99.20969600506173, 19.54536022494484 ], [ -99.208633827516067, 19.548301639686681 ], [ -99.20716312014514, 19.549282111267296 ], [ -99.202996115927533, 19.549282111267296 ], [ -99.201198584696414, 19.549772347057601 ], [ -99.201198584696414, 19.552468643904287 ], [ -99.201116878731355, 19.554511293030565 ], [ -99.197358404339013, 19.554592998995616 ], [ -99.194008459771922, 19.553694233380053 ], [ -99.189432925729051, 19.550507700743061 ], [ -99.187798806428034, 19.549118699337193 ], [ -99.182487918699707, 19.549608935127498 ], [ -99.177258736936437, 19.549445523197395 ], [ -99.17358196850914, 19.547402874071118 ], [ -99.170558847802255, 19.544706577224431 ], [ -99.169088140431327, 19.539885925286416 ], [ -99.167862550955562, 19.534575037558096 ], [ -99.166882079374943, 19.531143387025946 ], [ -99.159855366380555, 19.530571445270589 ], [ -99.156260303918302, 19.532614094396866 ], [ -99.152665241456049, 19.538251805985393 ], [ -99.149397002854016, 19.542173692307845 ], [ -99.145883646356808, 19.540702984936924 ], [ -99.144331233020836, 19.537516452299933 ], [ -99.14220687792951, 19.535964038963961 ], [ -99.141062994418803, 19.530571445270589 ], [ -99.139347169152728, 19.526241029122879 ], [ -99.13926546318767, 19.522645966660633 ], [ -99.139020345292522, 19.519704551918792 ], [ -99.140409346698391, 19.518397256477975 ], [ -99.140552332137219, 19.516558872264319 ], [ -99.139490154591556, 19.516232048404117 ], [ -99.134097560898184, 19.516354607351694 ], [ -99.127234259833884, 19.51639546033422 ], [ -99.124088580179418, 19.516313754369168 ], [ -99.122699578773549, 19.515088164893402 ], [ -99.122740431756071, 19.513208927697224 ], [ -99.12372090333669, 19.511860779273881 ], [ -99.123639197371631, 19.508919364532041 ], [ -99.122985549651233, 19.507612069091223 ], [ -99.121473989297783, 19.506427332597983 ], [ -99.121800813157975, 19.501770092590068 ], [ -99.119594752101591, 19.500095120306522 ], [ -99.115754571744191, 19.50017682627157 ], [ -99.113303392792659, 19.50017682627157 ], [ -99.111424155596481, 19.498951236795804 ], [ -99.110933919806172, 19.497031146617104 ], [ -99.111873538404268, 19.493231819242226 ], [ -99.113344245775195, 19.491066611168375 ], [ -99.114896659111167, 19.489350785902303 ], [ -99.115386894901462, 19.485510605544899 ], [ -99.11252718612468, 19.483794780278828 ], [ -99.109830889278001, 19.487063018880871 ], [ -99.106562650675954, 19.489759315727557 ], [ -99.10182370470298, 19.489595903797458 ], [ -99.098473760135889, 19.488778844146946 ], [ -99.097350303116414, 19.493007127838339 ], [ -99.097350303116414, 19.495621718719978 ], [ -99.094572300304677, 19.497746073811307 ], [ -99.092447945213351, 19.499788722937584 ], [ -99.095103389077508, 19.502280754871641 ], [ -99.098739304522283, 19.504323403997919 ], [ -99.102048396106852, 19.506733729966928 ], [ -99.102702043827293, 19.510451351376751 ], [ -99.103764221372955, 19.514454943664258 ], [ -99.10417275119822, 19.519520713497425 ], [ -99.101803278211733, 19.520991420868345 ], [ -99.098453333644642, 19.520419479112988 ], [ -99.095838742763007, 19.518458535951762 ], [ -99.093142445916314, 19.516661004720635 ], [ -99.090772972929841, 19.515353709279818 ], [ -99.087913264153045, 19.512739118398184 ], [ -99.087504734327794, 19.516415886825484 ], [ -99.088566911873457, 19.519112183672171 ], [ -99.089057147663766, 19.523115775959674 ], [ -99.085053555376263, 19.525240131051003 ], [ -99.083664553970394, 19.529897371058915 ], [ -99.080314609403302, 19.535044846857136 ], [ -99.077700018521668, 19.533655845451268 ], [ -99.074758603779827, 19.534064375276522 ], [ -99.069692833946661, 19.537822849668874 ], [ -99.065035593938745, 19.540028910725251 ], [ -99.059071058490005, 19.540682558445663 ], [ -99.053351640936427, 19.543542267222449 ], [ -99.051880933565513, 19.547137329684698 ], [ -99.054332112517045, 19.54942509670613 ], [ -99.054086994621883, 19.552938453203328 ], [ -99.05008340233438, 19.553592100923737 ], [ -99.04575298618667, 19.557350575316089 ], [ -99.04575298618667, 19.56045540198803 ], [ -99.046815163732333, 19.562334639184204 ], [ -99.043056689339991, 19.567236997087271 ], [ -99.041831099864226, 19.57156741323498 ], [ -99.042566453549696, 19.575734417452583 ], [ -99.043220101270109, 19.577858772543912 ], [ -99.039625038807856, 19.581290423076059 ], [ -99.038154331436942, 19.586764722734483 ], [ -99.039053097052502, 19.596160908715362 ], [ -99.039294970893636, 19.599713002034449 ], [ -99.023011588828354, 19.599716706001981 ], [ -99.023814934570112, 19.590237226249137 ], [ -99.024141758430318, 19.581249570093515 ], [ -99.025612465801231, 19.576020388330246 ], [ -99.030187999844102, 19.569483911126156 ], [ -99.036887888978285, 19.561966962341454 ], [ -99.042300909162932, 19.558657870756885 ], [ -99.048673974436909, 19.551712863727545 ], [ -99.050471505668042, 19.549506802671164 ], [ -99.050062975842778, 19.544604444768098 ], [ -99.055292157606047, 19.538966733179574 ], [ -99.057825042522637, 19.537904555633908 ], [ -99.062727400425715, 19.537904555633908 ], [ -99.065832227097644, 19.534799728961964 ], [ -99.068446817979279, 19.533002197730841 ], [ -99.072532116231841, 19.531531490359921 ], [ -99.075963766763991, 19.531041254569615 ], [ -99.078333239750464, 19.531613196324972 ], [ -99.080947830632098, 19.531613196324972 ], [ -99.082255126072923, 19.528099839827775 ], [ -99.083725833443836, 19.523360893854811 ], [ -99.087729425731339, 19.521073126833379 ], [ -99.087402601871119, 19.518315550512899 ], [ -99.0868612998527, 19.515323069542898 ], [ -99.086963432309005, 19.512688052169999 ], [ -99.087698785994476, 19.512116110414642 ], [ -99.090328696744592, 19.514025987347711 ], [ -99.092167080958248, 19.515435415244845 ], [ -99.094924657278725, 19.515782665596312 ], [ -99.098335881319585, 19.515762239105051 ], [ -99.101195590096381, 19.513883001908873 ], [ -99.099724882725454, 19.508081878390243 ], [ -99.097845645529276, 19.505058757683351 ], [ -99.093923759206831, 19.502362460836661 ], [ -99.091472580255285, 19.50064663557059 ], [ -99.092902434643733, 19.497623514863694 ], [ -99.094781671839911, 19.496479631352976 ], [ -99.095843849385574, 19.495294894859736 ], [ -99.096824320966192, 19.492598598013046 ], [ -99.097110291843862, 19.49063765485182 ], [ -99.097763939564274, 19.489044388533323 ], [ -99.098907823074967, 19.487941358005134 ], [ -99.101154737113873, 19.488554152743017 ], [ -99.10319738624014, 19.48888097660322 ], [ -99.106710742737349, 19.488840123620694 ], [ -99.108875950811196, 19.486797474494416 ], [ -99.110877746954984, 19.484713972385613 ], [ -99.112511866256, 19.483202412032167 ], [ -99.114227691522075, 19.483692647822473 ], [ -99.115820957840569, 19.484428001507933 ], [ -99.115984369770672, 19.486593209581788 ], [ -99.116229487665819, 19.4891669474809 ], [ -99.117005694333812, 19.491658979414961 ], [ -99.117822753984328, 19.495540012754887 ], [ -99.119416020302822, 19.497214985038436 ], [ -99.123419612590325, 19.499053369252085 ], [ -99.126156762419541, 19.499788722937545 ], [ -99.129220736108962, 19.503261226452221 ], [ -99.131304238217751, 19.507019700844573 ], [ -99.133183475413915, 19.509389173831057 ], [ -99.136941949806271, 19.508980644005799 ], [ -99.140537012268524, 19.504241698032835 ], [ -99.14086383612873, 19.499421046094817 ], [ -99.140618718233569, 19.495744277667516 ], [ -99.141190659988936, 19.492639450995572 ], [ -99.143723544905512, 19.490433389939191 ], [ -99.14682837157747, 19.487900505022608 ], [ -99.149933198249414, 19.486429797651688 ], [ -99.153364848781564, 19.486429797651688 ], [ -99.155979439663199, 19.484632266420562 ], [ -99.156469675453494, 19.481364027818515 ], [ -99.155734321768037, 19.477197023600908 ], [ -99.157940382824421, 19.47384707903381 ], [ -99.158920854405039, 19.470660546396818 ], [ -99.157940382824407, 19.464205775157776 ], [ -99.15851232457976, 19.459957064975118 ], [ -99.161208621426454, 19.456688826373071 ], [ -99.164803683888707, 19.452848646015667 ], [ -99.168235334420871, 19.448273111972803 ], [ -99.170686513372402, 19.444187813720244 ], [ -99.171503573022918, 19.441001281083249 ], [ -99.171585278987976, 19.435772099319976 ], [ -99.172484044603536, 19.433157508438342 ], [ -99.175507165310421, 19.430706329486807 ], [ -99.177059578646393, 19.428581974395478 ], [ -99.176487636891054, 19.426498472286671 ], [ -99.175588871275494, 19.424169852282713 ], [ -99.174649252677398, 19.422413174034112 ], [ -99.173668781096779, 19.420370524907835 ], [ -99.173954751974463, 19.418001051921351 ], [ -99.175425459345391, 19.415590725952342 ], [ -99.176651048821157, 19.413956606651322 ], [ -99.176365077943473, 19.412771870158078 ], [ -99.175425459345391, 19.411178603839581 ], [ -99.172402338638491, 19.40925851366088 ], [ -99.170318836529674, 19.407175011552077 ], [ -99.168684717228643, 19.404437861722862 ], [ -99.168235334420871, 19.400189151540204 ], [ -99.1674999807354, 19.397452001710992 ], [ -99.164640271958618, 19.394306322056522 ], [ -99.162638475814873, 19.391446613279733 ], [ -99.162229945989623, 19.386585108359188 ], [ -99.161372033356585, 19.381805309403699 ], [ -99.159574502125452, 19.37894560062691 ], [ -99.157000764226339, 19.377229775360835 ], [ -99.155448350890367, 19.375227979217083 ], [ -99.155530056855426, 19.374533478514149 ], [ -99.156265410540897, 19.371020122016947 ], [ -99.155856880715632, 19.367098235694492 ], [ -99.153160583868953, 19.364483644812857 ], [ -99.151117934742672, 19.359581286909787 ], [ -99.1495655214067, 19.357293519888355 ], [ -99.146542400699801, 19.355332576727129 ], [ -99.144172927713328, 19.354025281286312 ], [ -99.14229369051715, 19.348632687592936 ], [ -99.142130278587047, 19.344383977410274 ], [ -99.14016933542581, 19.343158387934508 ], [ -99.137473038579131, 19.340625503017922 ], [ -99.134368211907187, 19.341442562668433 ], [ -99.131835326990597, 19.340870620913076 ], [ -99.129302442074021, 19.339236501612053 ], [ -99.128321970493403, 19.33833773599649 ], [ -99.125870791541871, 19.338827971786799 ], [ -99.123337906625281, 19.33833773599649 ], [ -99.121050139603852, 19.33596826301001 ], [ -99.117373371176555, 19.335641439149803 ], [ -99.115739251875524, 19.334824379499292 ], [ -99.112471013273478, 19.336867028625569 ], [ -99.110428364147197, 19.342831564074302 ], [ -99.108630832916077, 19.345772978816143 ], [ -99.108058891160724, 19.34904121741819 ], [ -99.10536259431403, 19.35124727847457 ], [ -99.103646769047955, 19.35484234093682 ], [ -99.103728475013014, 19.359172757084533 ], [ -99.100705354306115, 19.361542230071013 ], [ -99.096865173948714, 19.361542230071013 ], [ -99.092453051835946, 19.361542230071013 ], [ -99.087714105862986, 19.362032465861322 ], [ -99.085099514981351, 19.360725170420501 ], [ -99.083792219540527, 19.358437403399069 ], [ -99.081994688309408, 19.3570484019932 ], [ -99.078726449707361, 19.356721578132998 ], [ -99.078072801986949, 19.355332576727129 ], [ -99.075621623035417, 19.354515517076617 ], [ -99.071291206887707, 19.354760634971768 ], [ -99.068676616006073, 19.352309456020237 ], [ -99.069248557761426, 19.346916862326861 ], [ -99.069166851796368, 19.343403505829663 ], [ -99.064999847578747, 19.338010912136291 ], [ -99.065081553543806, 19.334415849674041 ], [ -99.068840027936162, 19.329513491770971 ], [ -99.072271678468297, 19.325918429308722 ], [ -99.075049681280049, 19.322078248951318 ], [ -99.078726449707347, 19.321669719126064 ], [ -99.08362880761041, 19.320607541580397 ], [ -99.087877517793075, 19.320689247545449 ], [ -99.091472580255328, 19.320525835615346 ], [ -99.097273703773951, 19.322323366846472 ], [ -99.100787060271145, 19.322486778776572 ], [ -99.102993121327529, 19.320444129650294 ], [ -99.10503577045381, 19.316930773153096 ], [ -99.107241831510194, 19.313254004725795 ], [ -99.114840486259951, 19.311211355599514 ], [ -99.118190430827042, 19.308106528927571 ], [ -99.12137696346403, 19.301651757688532 ], [ -99.121703787324236, 19.297729871366077 ], [ -99.124318378205871, 19.291356806092086 ], [ -99.126197615402049, 19.287925155559936 ], [ -99.126524439262255, 19.283594739412226 ], [ -99.125298849786489, 19.280081382915029 ], [ -99.123746436450517, 19.274852201151756 ], [ -99.123664730485459, 19.268969371668074 ], [ -99.122030611184442, 19.266354780786436 ], [ -99.117128253281379, 19.262106070603778 ], [ -99.112716131168611, 19.25875612603668 ], [ -99.108549126951004, 19.254098886028768 ], [ -99.105689418174222, 19.251647707077229 ], [ -99.101359002026513, 19.247480702859622 ], [ -99.095557878507876, 19.247970938649928 ], [ -99.089429931129047, 19.246091701453754 ], [ -99.085017809016279, 19.246255113383853 ], [ -99.081667864449187, 19.245846583558599 ], [ -99.079461803392803, 19.245846583558599 ], [ -99.075294799175197, 19.246336819348905 ], [ -99.072108266538194, 19.246745349174162 ], [ -99.072353384433356, 19.249114822160642 ], [ -99.070555853202222, 19.253036708483098 ], [ -99.067042496705028, 19.255406181469581 ], [ -99.063365728277731, 19.254670827784121 ], [ -99.06042431353589, 19.254344003923919 ], [ -99.058953606164962, 19.254997651644327 ], [ -99.056175603353225, 19.253853768133609 ], [ -99.052743952821075, 19.254262297958867 ], [ -99.049557420184087, 19.255569593399684 ], [ -99.044246532455759, 19.256713476910399 ], [ -99.040242940168241, 19.256713476910399 ], [ -99.037138113496297, 19.259082949896882 ], [ -99.033461345069, 19.259654891652239 ], [ -99.026434632074597, 19.259654891652239 ], [ -99.021613980136593, 19.258511008141525 ], [ -99.015976268548059, 19.255733005329787 ], [ -99.009684909239127, 19.253690356203506 ], [ -99.006743494497286, 19.251892824972384 ], [ -99.003638667825342, 19.250667235496614 ], [ -99.00016616431067, 19.249564204968426 ], [ -98.998940574834904, 19.248910557248013 ], [ -98.998082662201867, 19.246214260401327 ], [ -98.996203425005689, 19.244580141100304 ], [ -98.994896129564879, 19.242251521096346 ], [ -98.993016892368715, 19.236593383016558 ], [ -98.99119893464632, 19.234019645117446 ], [ -98.99058613990843, 19.23256936423779 ], [ -98.989462682888984, 19.231078230375605 ], [ -98.988196240430696, 19.230322450198884 ], [ -98.986337429725779, 19.230056905812464 ], [ -98.983743265335406, 19.22846363949397 ], [ -98.97880005444982, 19.227401461948304 ], [ -98.973489166721492, 19.226298431420112 ], [ -98.968709367765996, 19.225277106856975 ], [ -98.95510532458492, 19.223602134573419 ], [ -98.93753854209892, 19.223602134573419 ], [ -98.928305768048148, 19.224092370363728 ], [ -98.923975351900438, 19.227033785105569 ], [ -98.920216877508082, 19.230302023707612 ], [ -98.917357168731286, 19.23365196827471 ], [ -98.916866932940991, 19.240106739513749 ], [ -98.911065809422368, 19.247541982333402 ], [ -98.90575492169404, 19.253179693921933 ], [ -98.901996447301684, 19.258408875685205 ], [ -98.895868499922855, 19.263311233588272 ], [ -98.890557612194527, 19.271890359918643 ], [ -98.888678374998349, 19.279243896773245 ], [ -98.890312494299366, 19.286515727662795 ], [ -98.893499026936368, 19.288721788719176 ], [ -98.898401384839431, 19.292480263111528 ], [ -98.902731800987141, 19.292725381006683 ], [ -98.906980511169806, 19.292725381006683 ], [ -98.908037582092888, 19.294625044694246 ], [ -98.909273384813957, 19.297727318054687 ], [ -98.912092240608217, 19.300464467883902 ], [ -98.914420860612182, 19.30201688121987 ], [ -98.916953745528758, 19.30250711701018 ], [ -98.919149593339839, 19.302387111374102 ], [ -98.923893645935394, 19.30636006392459 ], [ -98.927774679275316, 19.308198448138242 ], [ -98.931655712615253, 19.309342331648956 ], [ -98.940112279998033, 19.315306867097689 ], [ -98.945341461761302, 19.320454342895911 ], [ -98.948446288433246, 19.32388599342806 ], [ -98.952776704580955, 19.324294523253315 ], [ -98.957188826693724, 19.322496992022192 ], [ -98.960048535470506, 19.319228753420145 ], [ -98.959885123540403, 19.314326395517078 ], [ -98.961519242841433, 19.310486215159674 ], [ -98.962418008456993, 19.308116742173191 ], [ -98.963398480037597, 19.306482622872167 ], [ -98.968300837940674, 19.305502151291552 ], [ -98.969444721451381, 19.302397324619609 ], [ -98.971323958647559, 19.299864439703025 ], [ -98.97385684356415, 19.298312026367054 ], [ -98.976634846375887, 19.296841318996133 ], [ -98.979331143222566, 19.296105965310669 ], [ -98.984315207090688, 19.293899904254289 ], [ -98.988563917273353, 19.290549959687194 ], [ -98.992158979735606, 19.290468253722143 ], [ -98.99657110184836, 19.291857255128011 ], [ -99.00343440291266, 19.293736492324189 ], [ -99.008581878710885, 19.29447184600965 ], [ -99.014791532054772, 19.29667790706603 ], [ -99.020756067503498, 19.298883968122411 ], [ -99.023615776280295, 19.300926617248688 ], [ -99.027701074532843, 19.301253441108894 ], [ -99.032358314540758, 19.300109557598176 ], [ -99.035953377002997, 19.299210791982613 ], [ -99.040610617010913, 19.301171735143843 ], [ -99.044614209298416, 19.304113149885683 ], [ -99.046983682284903, 19.305583857256604 ], [ -99.050088508956847, 19.305583857256604 ], [ -99.052948217733643, 19.305093621466298 ], [ -99.055399396685175, 19.303459502165275 ], [ -99.057932281601765, 19.303132678305069 ], [ -99.059648106867826, 19.300681499353534 ], [ -99.058667635287222, 19.296923024961181 ], [ -99.058912753182369, 19.29398161021934 ], [ -99.063569993190285, 19.294063316184392 ], [ -99.066347996002023, 19.29667790706603 ], [ -99.068962586883657, 19.297168142856336 ], [ -99.070024764429334, 19.300436381458383 ], [ -99.071332059870144, 19.302397324619609 ], [ -99.069289410743863, 19.304685091641041 ], [ -99.066511407932126, 19.305338739361449 ], [ -99.064632170735948, 19.306564328837219 ], [ -99.063896817050491, 19.314326395517075 ], [ -99.062916345469873, 19.318329987804582 ], [ -99.061690755994121, 19.321679932371676 ], [ -99.057932281601765, 19.325193288868874 ], [ -99.054418925104571, 19.3271542320301 ], [ -99.052621393873451, 19.330422470632147 ], [ -99.052621393873451, 19.334262650989551 ], [ -99.051150686502524, 19.337612595556646 ], [ -99.047392212110168, 19.339246714857669 ], [ -99.04420567947318, 19.339246714857669 ], [ -99.041100852801236, 19.339982068543129 ], [ -99.037996026129292, 19.342433247494665 ], [ -99.033665609981583, 19.342760071354867 ], [ -99.030805901204786, 19.344802720481148 ], [ -99.028436428218313, 19.347417311362783 ], [ -99.024923071721105, 19.350277020139572 ], [ -99.021654833119058, 19.352319669265853 ], [ -99.018386594517011, 19.350767255929881 ], [ -99.01634394539073, 19.350031902244421 ], [ -99.014873238019817, 19.352319669265853 ], [ -99.011931823277976, 19.355261084007694 ], [ -99.008826996606032, 19.358120792784486 ], [ -99.007601407130267, 19.358856146469947 ], [ -99.003761226772866, 19.358284204714586 ], [ -98.999349104660098, 19.358202498749538 ], [ -98.993466275176417, 19.358284204714586 ], [ -98.986602974112117, 19.358529322609741 ], [ -98.983416441475129, 19.357140321203872 ], [ -98.981782322174098, 19.356568379448515 ], [ -98.977288494096285, 19.357222027168923 ], [ -98.971814194437869, 19.357548851029126 ], [ -98.968627661800866, 19.355914731728106 ], [ -98.966666718639644, 19.354607436287285 ], [ -98.962826538282243, 19.35485255418244 ], [ -98.959885123540403, 19.35705861523882 ], [ -98.957760768449063, 19.360000029980661 ], [ -98.957842474414122, 19.365065799813831 ], [ -98.959558299680197, 19.370540099472255 ], [ -98.961437536876375, 19.376994870711297 ], [ -98.963970421792951, 19.381325286859006 ], [ -98.967483778290159, 19.384756937391153 ], [ -98.973039783913634, 19.388025175993199 ], [ -98.975572668830225, 19.391130002665143 ], [ -98.97859578953711, 19.397829891799336 ], [ -98.979576261117714, 19.404202957073323 ], [ -98.979494555152669, 19.41090284620752 ], [ -98.976553140410829, 19.41670396972615 ], [ -98.97263125408837, 19.421279503769014 ], [ -98.969036191626117, 19.423485564825395 ], [ -98.96258142038711, 19.425119684126418 ], [ -98.955227883532501, 19.424302624475906 ], [ -98.949590171943981, 19.42324044693024 ], [ -98.943380518600094, 19.421279503769014 ], [ -98.939703750172797, 19.419563678502939 ], [ -98.935291628060028, 19.41670396972615 ], [ -98.923689381022768, 19.417112499551404 ], [ -98.918787023119705, 19.420053914293248 ], [ -98.916744373993424, 19.42446603640601 ], [ -98.91796996346919, 19.432064691155762 ], [ -98.921319908036281, 19.439173110115213 ], [ -98.92360767505771, 19.441379171171594 ], [ -98.92401620488296, 19.447997354340735 ], [ -98.922545497512047, 19.454697243474929 ], [ -98.920339436455663, 19.458047188042027 ], [ -98.918787023119663, 19.463848311560657 ], [ -98.915763902412777, 19.472100614030822 ], [ -98.914865136797218, 19.477574913689249 ], [ -98.915600490482674, 19.483702861068085 ], [ -98.918378493294412, 19.487706453355589 ], [ -98.923035733302328, 19.492772223188762 ], [ -98.926140559974286, 19.49791969898698 ], [ -98.927529561380155, 19.501106231623975 ], [ -98.928101503135508, 19.506253707422196 ], [ -98.929081974716127, 19.509848769884446 ], [ -98.928591738925817, 19.514587715857413 ], [ -98.93055268208704, 19.518673014109968 ], [ -98.932840449108468, 19.522268076572217 ], [ -98.936844041395986, 19.524065607803344 ], [ -98.939785456137827, 19.524310725698498 ], [ -98.941746399299049, 19.526353374824776 ], [ -98.942645164914609, 19.529131377636514 ], [ -98.941991517194197, 19.531909380448255 ], [ -98.940193985963077, 19.533788617644429 ], [ -98.938314748766899, 19.537955621862036 ], [ -98.938151336836796, 19.543021391695209 ], [ -98.941419575438843, 19.546371336262304 ], [ -98.943870754390375, 19.547024983982713 ], [ -98.947629228782731, 19.545064040821487 ], [ -98.951142585279925, 19.541468978359237 ], [ -98.95539129546259, 19.539181211337805 ], [ -98.956616884938356, 19.537383680106679 ], [ -98.957842474414122, 19.538037327827087 ], [ -98.960538771260815, 19.543021391695209 ], [ -98.960211947400623, 19.547842043633224 ], [ -98.958986357924857, 19.552090753815886 ], [ -98.958414416169504, 19.555195580487826 ], [ -98.956698590903429, 19.557238229614107 ], [ -98.953348646336337, 19.55977111453069 ], [ -98.950488937559541, 19.560179644355948 ], [ -98.946975581062347, 19.556176052068441 ], [ -98.943625636495241, 19.554787050662572 ], [ -98.939785456137813, 19.556747993823802 ], [ -98.940193985963077, 19.56156864576182 ], [ -98.944442696145728, 19.566879533490145 ], [ -98.949916995804159, 19.573742834554437 ], [ -98.957433944588871, 19.578726898422559 ], [ -98.963398480037597, 19.584936551766443 ], [ -98.96609477688429, 19.587877966508287 ], [ -98.967075248464909, 19.589920615634568 ], [ -98.968055720045513, 19.594577855642481 ], [ -98.969771545311588, 19.598499741964936 ], [ -98.969771545311588, 19.600052155300908 ], [ -98.92578240278813, 19.599738822645001 ], [ -98.92527754071871, 19.5978358809989 ], [ -98.922336125976884, 19.59562981994252 ], [ -98.919721535095235, 19.593750582746345 ], [ -98.916780120353408, 19.590400638179247 ], [ -98.912776528065876, 19.587377517472358 ], [ -98.908936347708476, 19.585906810101438 ], [ -98.906485168756944, 19.585661692206287 ], [ -98.901419398923778, 19.585089750450926 ], [ -98.899703573657703, 19.583619043080009 ], [ -98.896353629090612, 19.583455631149906 ], [ -98.892758566628359, 19.582230041674141 ], [ -98.892513448733197, 19.580269098512915 ], [ -98.892186624872991, 19.576428918155511 ], [ -98.890797623467122, 19.573487503413673 ], [ -98.888754974340856, 19.569974146916476 ], [ -98.887856208725282, 19.565480318838663 ], [ -98.887447678900031, 19.560904784795802 ], [ -98.88622208942428, 19.556737780578196 ], [ -98.886467207319427, 19.551181774954721 ], [ -98.88663061924953, 19.546361123016705 ], [ -98.886222089424251, 19.539007586162104 ], [ -98.884914793983441, 19.537046643000878 ], [ -98.884179440297984, 19.533451580538628 ], [ -98.88377091047272, 19.530019930006482 ], [ -98.883525792577572, 19.526424867544232 ], [ -98.885650147668898, 19.524709042278158 ], [ -98.884996499948485, 19.522176157361574 ], [ -98.882953850822219, 19.518907918759531 ], [ -98.882218497136748, 19.513433619101107 ], [ -98.884342852228102, 19.50706055382712 ], [ -98.888428150480649, 19.505017904700843 ], [ -98.894310979964331, 19.502648431714363 ], [ -98.900684045238322, 19.500360664692931 ], [ -98.9025632824345, 19.498399721531705 ], [ -98.90387057787531, 19.492516892048023 ], [ -98.905749815071488, 19.488840123620726 ], [ -98.906975404547268, 19.485245061158476 ], [ -98.906730286652106, 19.481731704661279 ], [ -98.906240050861797, 19.479117113779644 ], [ -98.902971812259764, 19.475767169212549 ], [ -98.899049925937305, 19.473479402191117 ], [ -98.899213337867408, 19.469639221833717 ], [ -98.901827928749043, 19.465308805686007 ], [ -98.906240050861797, 19.459589388132429 ], [ -98.910488761044462, 19.454441912334211 ], [ -98.914492353331966, 19.451418791627322 ], [ -98.915554530877628, 19.445617668108692 ], [ -98.916126472632982, 19.441532369856137 ], [ -98.913593587716406, 19.440061662485217 ], [ -98.912939939995994, 19.43278983159567 ], [ -98.913920411576612, 19.426580178251786 ], [ -98.914574059297024, 19.420697348768105 ], [ -98.913430175786317, 19.418001051921419 ], [ -98.913430175786317, 19.415468167004835 ], [ -98.916208178598055, 19.412445046297943 ], [ -98.919313005269998, 19.410484103136717 ], [ -98.922908067732237, 19.409258513660951 ], [ -98.928954309146022, 19.41007557331146 ], [ -98.934592020734556, 19.411791398577535 ], [ -98.940066320392958, 19.415468167004835 ], [ -98.942108969519239, 19.419144935432136 ], [ -98.944396736540668, 19.420533936838005 ], [ -98.948808858653436, 19.421187584558414 ], [ -98.953874628486602, 19.422004644208926 ], [ -98.957796514809047, 19.42241317403418 ], [ -98.965150051663656, 19.421187584558414 ], [ -98.971931646762897, 19.417674228061216 ], [ -98.974464531679473, 19.413834047703816 ], [ -98.976997416596063, 19.409421925591055 ], [ -98.976016945015445, 19.401659858911199 ], [ -98.975445003260091, 19.398064796448949 ], [ -98.974709649574635, 19.394306322056597 ], [ -98.972830412378457, 19.391773437140014 ], [ -98.970951175182279, 19.390221023804042 ], [ -98.968336584300644, 19.389975905908891 ], [ -98.962126930956771, 19.38776984485251 ], [ -98.959103810249871, 19.382949192914495 ], [ -98.955835571647825, 19.379272424487194 ], [ -98.954283158311853, 19.375105420269588 ], [ -98.953792922521558, 19.369957944471366 ], [ -98.955181923927427, 19.365382410428506 ], [ -98.955100217962368, 19.361297112175951 ], [ -98.956570925333281, 19.355577694622372 ], [ -98.959103810249871, 19.353780163391249 ], [ -98.961473283236344, 19.351165572509615 ], [ -98.965068345698597, 19.35165580829992 ], [ -98.969643879741454, 19.354433811111658 ], [ -98.972912118343501, 19.355495988657321 ], [ -98.976752298700902, 19.355495988657321 ], [ -98.98116442081367, 19.354760634971861 ], [ -98.986393602576939, 19.354760634971861 ], [ -98.988844781528471, 19.355741106552475 ], [ -98.99276666785093, 19.357048401993293 ], [ -98.997097083998625, 19.357048401993293 ], [ -99.000610440495834, 19.356313048307833 ], [ -99.005022562608588, 19.355495988657321 ], [ -99.008372507175679, 19.355577694622372 ], [ -99.010578568232063, 19.3540252812864 ], [ -99.012866335253491, 19.350757042684357 ], [ -99.014827278414728, 19.346590038466751 ], [ -99.017196751401215, 19.34585468478129 ], [ -99.018667458772128, 19.346426626536648 ], [ -99.020546695968306, 19.347325392152211 ], [ -99.022752757024691, 19.344710801270576 ], [ -99.024060052465501, 19.342586446179247 ], [ -99.023242992815, 19.340625503018021 ], [ -99.02332469878003, 19.338827971786895 ], [ -99.029942881949168, 19.338991383716998 ], [ -99.031331883355037, 19.337765794241228 ], [ -99.034191592131833, 19.334497555639185 ], [ -99.03656106511832, 19.334579261604237 ], [ -99.038440302314484, 19.333108554233316 ], [ -99.041218305126222, 19.332046376687654 ], [ -99.044323131798166, 19.331719552827447 ], [ -99.045793839169093, 19.329595197736118 ], [ -99.046284074959388, 19.324120898077695 ], [ -99.048245018120625, 19.322323366846568 ], [ -99.051186432862465, 19.322159954916465 ], [ -99.055190025149969, 19.321179483335854 ], [ -99.057477792171397, 19.318646598419267 ], [ -99.059602147262723, 19.314397888236613 ], [ -99.059683853227781, 19.31137476752972 ], [ -99.061889914284151, 19.307371175242217 ], [ -99.064259387270639, 19.304348054535325 ], [ -99.065321564816301, 19.30173346365369 ], [ -99.064831329025992, 19.299935932422567 ], [ -99.063932563410432, 19.298383519086595 ], [ -99.063442327620123, 19.296994517680726 ], [ -99.062298444109416, 19.295768928204961 ], [ -99.061644796389004, 19.296504281890421 ], [ -99.062625267969622, 19.298138401191441 ], [ -99.063033797794873, 19.301243227863385 ], [ -99.062380150074461, 19.304511466465428 ], [ -99.061236266563753, 19.306308997696551 ], [ -99.058948499542311, 19.307452881207269 ], [ -99.056415614625735, 19.307452881207269 ], [ -99.054372965499454, 19.307943116997574 ], [ -99.05167666865276, 19.30753458717232 ], [ -99.048571841980831, 19.30753458717232 ], [ -99.045467015308887, 19.308106528927677 ], [ -99.043506072147665, 19.307452881207269 ], [ -99.04089148126603, 19.3060638798014 ], [ -99.039175655999955, 19.307616293137372 ], [ -99.036887888978526, 19.309413824368495 ], [ -99.034926945817304, 19.309985766123852 ], [ -99.034273298096892, 19.308351646822832 ], [ -99.030841647564742, 19.308024822962626 ], [ -99.026674643347135, 19.30826994085778 ], [ -99.024795406150957, 19.307289469277165 ], [ -99.022671051059632, 19.30532852611594 ], [ -99.020546695968306, 19.304429760500376 ], [ -99.016216279820597, 19.303449288919765 ], [ -99.015072396309876, 19.301815169618742 ], [ -99.013356571043801, 19.300834698038127 ], [ -99.007963977350428, 19.300752992073075 ], [ -99.006656681909604, 19.299445696632258 ], [ -99.005676210328986, 19.299854226457516 ], [ -99.004123796993028, 19.301488345758536 ], [ -99.002734795587159, 19.300834698038127 ], [ -99.001999441901688, 19.299118872772056 ], [ -99.000201910670569, 19.298383519086595 ], [ -98.998894615229744, 19.299854226457516 ], [ -98.997750731719037, 19.298628636981746 ], [ -98.995626376627712, 19.296912811715675 ], [ -98.993502021536372, 19.297403047505981 ], [ -98.990724018724634, 19.297484753471032 ], [ -98.987047250297337, 19.297893283296286 ], [ -98.984677777310864, 19.300017638387615 ], [ -98.983452187835098, 19.302877347164404 ], [ -98.980919302918508, 19.304348054535325 ], [ -98.978876653792227, 19.306063879801396 ], [ -98.978876653792227, 19.307534587172317 ], [ -98.978059594141712, 19.309577236298594 ], [ -98.974709649574621, 19.31153817945982 ], [ -98.972912118343501, 19.311293061564669 ], [ -98.969643879741454, 19.312028415250129 ], [ -98.967601230615173, 19.313580828586097 ], [ -98.968009760440438, 19.318564892454216 ], [ -98.96743781868507, 19.32117948333585 ], [ -98.964823227803436, 19.324611133867997 ], [ -98.961064753411094, 19.329513491771063 ], [ -98.959594046040166, 19.332291494582801 ], [ -98.957878220774091, 19.33588655704505 ], [ -98.955672159717722, 19.340053561262657 ], [ -98.952975862871028, 19.342668152144292 ], [ -98.951750273395248, 19.341442562668526 ], [ -98.950279566024335, 19.339890149332554 ], [ -98.949625918303923, 19.336867028625662 ], [ -98.947583269177642, 19.334170731778975 ], [ -98.945377208121272, 19.332700024408055 ], [ -98.944151618645506, 19.330085433526421 ], [ -98.942027263554181, 19.32935007984096 ], [ -98.940965086008504, 19.327062312819528 ], [ -98.940965086008504, 19.324120898077691 ], [ -98.940801674078401, 19.322159954916462 ], [ -98.933529843188865, 19.322159954916462 ], [ -98.933529843188865, 19.319381952104724 ], [ -98.928709191250846, 19.318810010349367 ], [ -98.927320189844977, 19.314724712096812 ], [ -98.924787304928415, 19.31227353314528 ], [ -98.921028830536059, 19.31153817945982 ], [ -98.918577651584528, 19.310149178053951 ], [ -98.91620817859804, 19.31227353314528 ], [ -98.914655765262069, 19.313417416655998 ], [ -98.913593587716406, 19.312191827180229 ], [ -98.912041174380434, 19.311701591389923 ], [ -98.909671701393961, 19.314316182271558 ], [ -98.906485168756959, 19.316767361223093 ], [ -98.903625459980177, 19.317421008943501 ], [ -98.897579218566392, 19.320607541580493 ], [ -98.896435335055671, 19.321669719126159 ], [ -98.885078205913572, 19.321424601231005 ], [ -98.882790438892144, 19.320934365440699 ], [ -98.880829495730922, 19.320035599825136 ], [ -98.882381909066879, 19.31807465666391 ], [ -98.881238025556172, 19.31660394929299 ], [ -98.878296610814331, 19.315541771747323 ], [ -98.876580785548256, 19.313254004725895 ], [ -98.876580785548256, 19.310884531739411 ], [ -98.875028372212284, 19.309740648228697 ], [ -98.871678427645193, 19.309413824368491 ], [ -98.869227248693647, 19.307452881207265 ], [ -98.869308954658706, 19.302877347164401 ], [ -98.868818718868397, 19.299935932422564 ], [ -98.868328483078088, 19.29830181312154 ], [ -98.865795598161512, 19.295605516274854 ], [ -98.864406596755643, 19.29323604328837 ], [ -98.864651714650805, 19.289436715913496 ], [ -98.865387068336275, 19.286862978014387 ], [ -98.863589537105142, 19.284779475905584 ], [ -98.860688975345838, 19.284207534150227 ], [ -98.859504238852594, 19.281592943268588 ], [ -98.855051263757304, 19.28167464923364 ], [ -98.854356763054369, 19.279917970985043 ], [ -98.85255923182325, 19.276731438348051 ], [ -98.851251936382425, 19.275546701854807 ], [ -98.850349815705329, 19.275195247054889 ] ], [ [ -99.097186891186169, 19.354147840233971 ], [ -99.101435601368834, 19.352268603037796 ], [ -99.101435601368834, 19.348918658470701 ], [ -99.10355995646016, 19.346876009344424 ], [ -99.105030663831087, 19.347121127239575 ], [ -99.104622134005822, 19.343117534952071 ], [ -99.106337959271897, 19.341728533546203 ], [ -99.107890372607869, 19.339195648629619 ], [ -99.105684311551485, 19.336826175643136 ], [ -99.105439193656338, 19.335028644412013 ], [ -99.10699160699231, 19.333312819145938 ], [ -99.106419665236956, 19.330943346159458 ], [ -99.103396544530057, 19.328083637382669 ], [ -99.098739304522141, 19.326531224046697 ], [ -99.094899124164741, 19.325469046501034 ], [ -99.091304061702502, 19.325469046501034 ], [ -99.090078472226722, 19.324570280885471 ], [ -99.088117529065499, 19.323426397374757 ], [ -99.085257820288717, 19.32522392860588 ], [ -99.083051759232333, 19.324243457025265 ], [ -99.081744463791509, 19.326040988256391 ], [ -99.079211578874933, 19.324080045095165 ], [ -99.077087223783607, 19.326939753871955 ], [ -99.07381898518156, 19.327511695627312 ], [ -99.073655573251457, 19.329881168613792 ], [ -99.073900691146605, 19.332414053530378 ], [ -99.070469040614469, 19.331188464054609 ], [ -99.070060510789204, 19.333721348971196 ], [ -99.070142216754263, 19.336826175643136 ], [ -99.070795864474661, 19.338868824769413 ], [ -99.074962868692268, 19.340911473895691 ], [ -99.075371398517532, 19.345568713903607 ], [ -99.075371398517532, 19.349000364435753 ], [ -99.077414047643813, 19.352105191107693 ], [ -99.081499345896361, 19.352758838828102 ], [ -99.085094408358614, 19.356517313220454 ], [ -99.088280940995602, 19.359131904102089 ], [ -99.091467473632591, 19.358233138486526 ], [ -99.095062536094844, 19.355863665500046 ], [ -99.097186891186169, 19.354147840233971 ] ], [ [ -98.959103810249744, 19.544114208977788 ], [ -98.959185516214788, 19.542643501606868 ], [ -98.957837367791441, 19.541744735991308 ], [ -98.957959926739022, 19.544155061960314 ], [ -98.959103810249744, 19.544114208977788 ] ], [ [ -98.955141070944762, 19.552162246535325 ], [ -98.9540788933991, 19.549465949688635 ], [ -98.951709420412612, 19.55044642126925 ], [ -98.953098421818481, 19.552815894255733 ], [ -98.955141070944762, 19.552162246535325 ] ] ], [ [ [ -99.030719088617104, 19.379599248347397 ], [ -99.032649392041293, 19.377860443278568 ], [ -99.034773747132633, 19.375899500117342 ], [ -99.035325262396725, 19.37479646958915 ], [ -99.0351209974841, 19.373673012569697 ], [ -99.033221333796661, 19.373468747657071 ], [ -99.031607640986891, 19.372672114497821 ], [ -99.030545463441229, 19.371630363443419 ], [ -99.029850962738294, 19.370588612389017 ], [ -99.028339402384844, 19.370200509055024 ], [ -99.027215945365398, 19.370220935546286 ], [ -99.026031208872155, 19.37024136203755 ], [ -99.024989457817753, 19.371385245548264 ], [ -99.024090692202194, 19.372426996602666 ], [ -99.022701690796325, 19.374040689412428 ], [ -99.021042038381239, 19.375074780532596 ], [ -99.020822453600118, 19.373448321165814 ], [ -99.020291364827287, 19.369506008352094 ], [ -99.020250511844765, 19.367708477120971 ], [ -99.021659939741895, 19.365318577643226 ], [ -99.023866000798279, 19.36425640009756 ], [ -99.026766562557597, 19.364235973606299 ], [ -99.028318975893569, 19.365175592204384 ], [ -99.029871389229527, 19.366625873084043 ], [ -99.030811007827623, 19.36838255133264 ], [ -99.031914038355808, 19.37107884817933 ], [ -99.033609437130622, 19.37130353958322 ], [ -99.035202703449116, 19.371548657478375 ], [ -99.036836822750132, 19.372672114497828 ], [ -99.037490470470544, 19.374592204676528 ], [ -99.036121895555937, 19.376124191521239 ], [ -99.033303039761677, 19.378800061876664 ], [ -99.030719088617104, 19.379599248347397 ] ] ] ] } },
{ "type": "Feature", "properties": { "id": 1, "Zona": "Zona I" }, "geometry": { "type": "MultiPolygon", "coordinates": [ [ [ [ -98.942027263554181, 19.266354780786564 ], [ -98.936307846000602, 19.272891257990654 ], [ -98.933039607398555, 19.273054669920757 ], [ -98.928545779320743, 19.271093726759528 ], [ -98.92748360177508, 19.267662076227381 ], [ -98.927565307740124, 19.262187776568958 ], [ -98.93132378213248, 19.25924636182712 ], [ -98.934183490909263, 19.257530536561045 ], [ -98.937288317581206, 19.253281826378387 ], [ -98.944233324610551, 19.252464766727876 ], [ -98.947338151282494, 19.255161063574562 ], [ -98.949707624268981, 19.258837832001863 ], [ -98.94635767970189, 19.263576777974826 ], [ -98.943743088820241, 19.26594625096131 ], [ -98.942027263554181, 19.266354780786564 ] ] ], [ [ [ -99.097186891186169, 19.354147840233971 ], [ -99.095062536094844, 19.355863665500046 ], [ -99.091467473632591, 19.358233138486526 ], [ -99.088280940995602, 19.359131904102089 ], [ -99.085094408358614, 19.356517313220454 ], [ -99.081499345896361, 19.352758838828102 ], [ -99.077414047643813, 19.352105191107693 ], [ -99.075371398517532, 19.349000364435753 ], [ -99.075371398517532, 19.345568713903607 ], [ -99.074962868692268, 19.340911473895691 ], [ -99.070795864474661, 19.338868824769413 ], [ -99.070142216754263, 19.336826175643136 ], [ -99.070060510789204, 19.333721348971196 ], [ -99.070469040614469, 19.331188464054609 ], [ -99.073900691146605, 19.332414053530378 ], [ -99.073655573251457, 19.329881168613792 ], [ -99.07381898518156, 19.327511695627312 ], [ -99.077087223783607, 19.326939753871955 ], [ -99.079211578874933, 19.324080045095165 ], [ -99.081744463791509, 19.326040988256391 ], [ -99.083051759232333, 19.324243457025265 ], [ -99.085257820288717, 19.32522392860588 ], [ -99.088117529065499, 19.323426397374757 ], [ -99.090078472226722, 19.324570280885471 ], [ -99.091304061702502, 19.325469046501034 ], [ -99.094899124164741, 19.325469046501034 ], [ -99.098739304522141, 19.326531224046697 ], [ -99.103396544530057, 19.328083637382669 ], [ -99.106419665236956, 19.330943346159458 ], [ -99.10699160699231, 19.333312819145938 ], [ -99.105439193656338, 19.335028644412013 ], [ -99.105684311551485, 19.336826175643136 ], [ -99.107890372607869, 19.339195648629619 ], [ -99.106337959271897, 19.341728533546203 ], [ -99.104622134005822, 19.343117534952071 ], [ -99.105030663831087, 19.347121127239575 ], [ -99.10355995646016, 19.346876009344424 ], [ -99.101435601368834, 19.348918658470701 ], [ -99.101435601368834, 19.352268603037796 ], [ -99.097186891186169, 19.354147840233971 ] ] ], [ [ [ -98.919149593339839, 19.302387111374102 ], [ -98.916953745528758, 19.30250711701018 ], [ -98.914420860612182, 19.30201688121987 ], [ -98.912092240608217, 19.300464467883902 ], [ -98.909273384813957, 19.297727318054687 ], [ -98.908037582092888, 19.294625044694246 ], [ -98.911463244175181, 19.290514660556816 ], [ -98.916126472632939, 19.290049510651379 ], [ -98.917842297899014, 19.293399455218477 ], [ -98.918822769479632, 19.297484753471036 ], [ -98.919149593339839, 19.302387111374102 ] ] ], [ [ [ -99.299388728196561, 19.599653838721288 ], [ -99.039294970893636, 19.599713002034449 ], [ -99.039053097052502, 19.596160908715362 ], [ -99.038154331436942, 19.586764722734483 ], [ -99.039625038807856, 19.581290423076059 ], [ -99.043220101270109, 19.577858772543912 ], [ -99.042566453549696, 19.575734417452583 ], [ -99.041831099864226, 19.57156741323498 ], [ -99.043056689339991, 19.567236997087271 ], [ -99.046815163732333, 19.562334639184204 ], [ -99.04575298618667, 19.56045540198803 ], [ -99.04575298618667, 19.557350575316089 ], [ -99.05008340233438, 19.553592100923737 ], [ -99.054086994621883, 19.552938453203328 ], [ -99.054332112517045, 19.54942509670613 ], [ -99.051880933565513, 19.547137329684698 ], [ -99.053351640936427, 19.543542267222449 ], [ -99.059071058490005, 19.540682558445663 ], [ -99.065035593938745, 19.540028910725251 ], [ -99.069692833946661, 19.537822849668874 ], [ -99.074758603779827, 19.534064375276522 ], [ -99.077700018521668, 19.533655845451268 ], [ -99.080314609403302, 19.535044846857136 ], [ -99.083664553970394, 19.529897371058915 ], [ -99.085053555376263, 19.525240131051003 ], [ -99.089057147663766, 19.523115775959674 ], [ -99.088566911873457, 19.519112183672171 ], [ -99.087504734327794, 19.516415886825484 ], [ -99.087913264153045, 19.512739118398184 ], [ -99.090772972929841, 19.515353709279818 ], [ -99.093142445916314, 19.516661004720635 ], [ -99.095838742763007, 19.518458535951762 ], [ -99.098453333644642, 19.520419479112988 ], [ -99.101803278211733, 19.520991420868345 ], [ -99.10417275119822, 19.519520713497425 ], [ -99.103764221372955, 19.514454943664258 ], [ -99.102702043827293, 19.510451351376751 ], [ -99.102048396106852, 19.506733729966928 ], [ -99.098739304522283, 19.504323403997919 ], [ -99.095103389077508, 19.502280754871641 ], [ -99.092447945213351, 19.499788722937584 ], [ -99.094572300304677, 19.497746073811307 ], [ -99.097350303116414, 19.495621718719978 ], [ -99.097350303116414, 19.493007127838339 ], [ -99.098473760135889, 19.488778844146946 ], [ -99.10182370470298, 19.489595903797458 ], [ -99.106562650675954, 19.489759315727557 ], [ -99.109830889278001, 19.487063018880871 ], [ -99.11252718612468, 19.483794780278828 ], [ -99.115386894901462, 19.485510605544899 ], [ -99.114896659111167, 19.489350785902303 ], [ -99.113344245775195, 19.491066611168375 ], [ -99.111873538404268, 19.493231819242226 ], [ -99.110933919806172, 19.497031146617104 ], [ -99.111424155596481, 19.498951236795804 ], [ -99.113303392792659, 19.50017682627157 ], [ -99.115754571744191, 19.50017682627157 ], [ -99.119594752101591, 19.500095120306522 ], [ -99.121800813157975, 19.501770092590068 ], [ -99.121473989297783, 19.506427332597983 ], [ -99.122985549651233, 19.507612069091223 ], [ -99.123639197371631, 19.508919364532041 ], [ -99.12372090333669, 19.511860779273881 ], [ -99.122740431756071, 19.513208927697224 ], [ -99.122699578773549, 19.515088164893402 ], [ -99.124088580179418, 19.516313754369168 ], [ -99.127234259833884, 19.51639546033422 ], [ -99.134097560898184, 19.516354607351694 ], [ -99.139490154591556, 19.516232048404117 ], [ -99.140552332137219, 19.516558872264319 ], [ -99.140409346698391, 19.518397256477975 ], [ -99.139020345292522, 19.519704551918792 ], [ -99.13926546318767, 19.522645966660633 ], [ -99.139347169152728, 19.526241029122879 ], [ -99.141062994418803, 19.530571445270589 ], [ -99.14220687792951, 19.535964038963961 ], [ -99.144331233020836, 19.537516452299933 ], [ -99.145883646356808, 19.540702984936924 ], [ -99.149397002854016, 19.542173692307845 ], [ -99.152665241456049, 19.538251805985393 ], [ -99.156260303918302, 19.532614094396866 ], [ -99.159855366380555, 19.530571445270589 ], [ -99.166882079374943, 19.531143387025946 ], [ -99.167862550955562, 19.534575037558096 ], [ -99.169088140431327, 19.539885925286416 ], [ -99.170558847802255, 19.544706577224431 ], [ -99.17358196850914, 19.547402874071118 ], [ -99.177258736936437, 19.549445523197395 ], [ -99.182487918699707, 19.549608935127498 ], [ -99.187798806428034, 19.549118699337193 ], [ -99.189432925729051, 19.550507700743061 ], [ -99.194008459771922, 19.553694233380053 ], [ -99.197358404339013, 19.554592998995616 ], [ -99.201116878731355, 19.554511293030565 ], [ -99.201198584696414, 19.552468643904287 ], [ -99.201198584696414, 19.549772347057601 ], [ -99.202996115927533, 19.549282111267296 ], [ -99.20716312014514, 19.549282111267296 ], [ -99.208633827516067, 19.548301639686681 ], [ -99.20969600506173, 19.54536022494484 ], [ -99.210513064712245, 19.542091986342797 ], [ -99.21312765559388, 19.539150571600956 ], [ -99.217131247881383, 19.535800627033861 ], [ -99.220481192448474, 19.532205564571612 ], [ -99.218356837357149, 19.530326327375438 ], [ -99.21312765559388, 19.529999503515235 ], [ -99.207735061900507, 19.531143387025949 ], [ -99.202750998032386, 19.533921389837687 ], [ -99.198420581884676, 19.535228685278504 ], [ -99.193518223981613, 19.535800627033861 ], [ -99.190168279414507, 19.53482015545325 ], [ -99.190086573449463, 19.531551916851203 ], [ -99.192210928540788, 19.528610502109366 ], [ -99.194743813457379, 19.524933733682065 ], [ -99.195315755212732, 19.520766729464459 ], [ -99.19596940293313, 19.516763137176955 ], [ -99.199237641535177, 19.515129017875932 ], [ -99.204466823298446, 19.512922956819551 ], [ -99.206999708215037, 19.508674246636893 ], [ -99.207244826110184, 19.502546299258061 ], [ -99.209124063306362, 19.497235411529736 ], [ -99.211411830327791, 19.491842817836364 ], [ -99.211330124362732, 19.485714870457532 ], [ -99.210921594537481, 19.480567394659314 ], [ -99.203976587508123, 19.466513968670519 ], [ -99.200136407150723, 19.460957963047044 ], [ -99.197194992408882, 19.456709252864389 ], [ -99.195479167142807, 19.453522720227394 ], [ -99.195070637317556, 19.445107005827129 ], [ -99.195070637317556, 19.440858295644471 ], [ -99.197521816269088, 19.437181527217174 ], [ -99.199319347500207, 19.433504758789873 ], [ -99.199401053465252, 19.431135285803393 ], [ -99.197766934164235, 19.427540223341143 ], [ -99.195969402933102, 19.424843926494457 ], [ -99.193027988191261, 19.422474453507974 ], [ -99.18967804362417, 19.420922040172005 ], [ -99.185020803616254, 19.420023274556442 ], [ -99.181997682909369, 19.420104980521494 ], [ -99.17897456220247, 19.420431804381696 ], [ -99.176931913076203, 19.420595216311799 ], [ -99.176114853425688, 19.418307449290367 ], [ -99.178239208517013, 19.416836741919447 ], [ -99.180363563608338, 19.415774564373784 ], [ -99.183550096245341, 19.41389532717761 ], [ -99.185429333441519, 19.409891734890103 ], [ -99.185511039406563, 19.403355257686016 ], [ -99.183795214140488, 19.400332136979124 ], [ -99.182324506769575, 19.398452899782949 ], [ -99.182324506769575, 19.391507892753605 ], [ -99.182978154489987, 19.383827532038801 ], [ -99.18220194782198, 19.378761762205638 ], [ -99.179505650975301, 19.376147171324003 ], [ -99.176196559390732, 19.372021020088919 ], [ -99.175992294478107, 19.369038752364556 ], [ -99.177912384656807, 19.366710132360598 ], [ -99.179219680097631, 19.363033363933297 ], [ -99.179342239045241, 19.360132802173982 ], [ -99.180241004660814, 19.357395652344771 ], [ -99.182692183612346, 19.354168266725253 ], [ -99.183509243262847, 19.350164674437746 ], [ -99.181997682909412, 19.347059847765806 ], [ -99.177544707814093, 19.343301373373453 ], [ -99.173622821491634, 19.341830666002537 ], [ -99.170967377627477, 19.34076848845687 ], [ -99.157404187428995, 19.340400811614142 ], [ -99.156015186023126, 19.338930104243222 ], [ -99.15478959654736, 19.336887455116944 ], [ -99.153482301106536, 19.337459396872301 ], [ -99.152379270578351, 19.3357027186237 ], [ -99.153768271984219, 19.335294188798446 ], [ -99.154095095844426, 19.333905187392578 ], [ -99.151071975137526, 19.331617420371145 ], [ -99.147885442500538, 19.333578363532371 ], [ -99.146333029164566, 19.332271068091554 ], [ -99.144617203898491, 19.331454008441042 ], [ -99.144862321793653, 19.329819889140023 ], [ -99.143881850213035, 19.327123592293336 ], [ -99.143718438282932, 19.324182177551496 ], [ -99.141920907051812, 19.322466352285421 ], [ -99.141839201086754, 19.320260291229044 ], [ -99.143391614422725, 19.3171554645571 ], [ -99.141348965296444, 19.313478696129799 ], [ -99.140491052663421, 19.310741546300591 ], [ -99.140817876523627, 19.307187336820867 ], [ -99.141716642139187, 19.305961747345101 ], [ -99.14380014424799, 19.303428862428515 ], [ -99.146619000042264, 19.301059389442035 ], [ -99.149356149871466, 19.29664726732927 ], [ -99.152297564613306, 19.295380824870978 ], [ -99.152746947421093, 19.293624146622378 ], [ -99.151357946015224, 19.291949174338832 ], [ -99.149887238644297, 19.291663203461152 ], [ -99.149519561801569, 19.293133910832072 ], [ -99.146087911269419, 19.292929645919447 ], [ -99.145515969514065, 19.291336379600949 ], [ -99.144535497933447, 19.289212024509624 ], [ -99.143963556178093, 19.287741317138703 ], [ -99.144004409160615, 19.284759049414337 ], [ -99.142697113719805, 19.284513931519182 ], [ -99.140777023541105, 19.283410900990994 ], [ -99.139796551960487, 19.282348723445327 ], [ -99.139796551960487, 19.28059204519673 ], [ -99.140654464593524, 19.279203043790861 ], [ -99.139102051257552, 19.278181719227721 ], [ -99.138611815467243, 19.278753660983082 ], [ -99.136691725288543, 19.278917072913181 ], [ -99.135139311952571, 19.279693279581167 ], [ -99.134199693354489, 19.280878016074411 ], [ -99.133913722476805, 19.282185311515228 ], [ -99.131952779315583, 19.282267017480279 ], [ -99.131135719665068, 19.281082280987036 ], [ -99.129828424224243, 19.27883536694813 ], [ -99.129419894398993, 19.276343335014072 ], [ -99.128439422818374, 19.272053771848888 ], [ -99.128194304923227, 19.27021538763524 ], [ -99.127091274395028, 19.269194063072099 ], [ -99.125375449128953, 19.267355678858451 ], [ -99.12623336176199, 19.262739291833061 ], [ -99.124149859653187, 19.262208203060229 ], [ -99.123087682107524, 19.263801469378727 ], [ -99.121616974736611, 19.263597204466098 ], [ -99.120309679295787, 19.262085644112652 ], [ -99.118716412977292, 19.261064319549515 ], [ -99.117449970519004, 19.259430200248492 ], [ -99.117572529466571, 19.257836933929994 ], [ -99.116632910868489, 19.255794284803716 ], [ -99.115162203497576, 19.254772960240579 ], [ -99.114345143847061, 19.253343105852185 ], [ -99.112220788755735, 19.252771164096828 ], [ -99.109851315769248, 19.252035810411368 ], [ -99.107604401730342, 19.249625484442358 ], [ -99.105030663831243, 19.249502925494781 ], [ -99.104091045233147, 19.24852245391417 ], [ -99.104091045233147, 19.246071274962635 ], [ -99.102416072949609, 19.244804832504343 ], [ -99.099556364172813, 19.245662745137381 ], [ -99.096165566623199, 19.246888334613146 ], [ -99.093387563811461, 19.246643216717992 ], [ -99.091916856440534, 19.245867010050006 ], [ -99.091018090824974, 19.243048154255742 ], [ -99.089465677489002, 19.244110331801409 ], [ -99.087218763450096, 19.245581039172329 ], [ -99.08468587853352, 19.244845685486869 ], [ -99.083419436075232, 19.242884742325643 ], [ -99.080968257123686, 19.242803036360591 ], [ -99.079824373612979, 19.244437155661611 ], [ -99.077373194661448, 19.244682273556766 ], [ -99.076596987993454, 19.245009097416972 ], [ -99.070959276404935, 19.243865213906254 ], [ -99.068508097453403, 19.245254215312123 ], [ -99.070142216754419, 19.247950512158809 ], [ -99.069406863068963, 19.250319985145293 ], [ -99.066547154292181, 19.253179693922082 ], [ -99.062870385864869, 19.253261399887133 ], [ -99.058703381647263, 19.252035810411364 ], [ -99.054863201289862, 19.250401691110344 ], [ -99.050532785142153, 19.252035810411364 ], [ -99.046774310749811, 19.254732107258054 ], [ -99.043669484077867, 19.255385754978462 ], [ -99.037704948629141, 19.255875990768768 ], [ -99.034191592131933, 19.258817405510609 ], [ -99.029861175984223, 19.258817405510609 ], [ -99.024223464395703, 19.258735699545557 ], [ -99.021282049653863, 19.257183286209585 ], [ -99.016543103680903, 19.254650401293002 ], [ -99.013029747183694, 19.253996753572594 ], [ -99.009434684721455, 19.251708986551161 ], [ -99.005594504364055, 19.249829749354987 ], [ -99.002571383657155, 19.250074867250138 ], [ -98.99954826295027, 19.248604159879218 ], [ -98.99954826295027, 19.246234686892738 ], [ -98.996443436278327, 19.243538390046051 ], [ -98.994155669256898, 19.237573854597319 ], [ -98.992031314165573, 19.234387321960327 ], [ -98.991704490305366, 19.229648375987363 ], [ -98.990969136619896, 19.226135019490165 ], [ -98.98884478152857, 19.221559485447305 ], [ -98.983452187835198, 19.221477779482253 ], [ -98.977814476246678, 19.218127834915158 ], [ -98.97683400466606, 19.213797418767449 ], [ -98.970256674479458, 19.211754769641171 ], [ -98.967110994824992, 19.209998091392574 ], [ -98.964700668855983, 19.207506059458517 ], [ -98.963515932362753, 19.205463410332236 ], [ -98.961309871306369, 19.20570852822739 ], [ -98.959389781127669, 19.206362175947799 ], [ -98.957224573053807, 19.207751177353668 ], [ -98.955917277612997, 19.207220088580836 ], [ -98.954324011294503, 19.205545116297287 ], [ -98.952363068133266, 19.204319526821521 ], [ -98.950851507779831, 19.205667675244865 ], [ -98.949666771286587, 19.207138382615785 ], [ -98.94880885865355, 19.206852411738105 ], [ -98.946561944614643, 19.206117058052648 ], [ -98.942599205309662, 19.206648146825479 ], [ -98.940801674078543, 19.2081188541964 ], [ -98.939535231620241, 19.206770705773057 ], [ -98.937472156002713, 19.207383500510936 ], [ -98.931099090728722, 19.20705667665073 ], [ -98.92448090755957, 19.206688999807998 ], [ -98.919415137726403, 19.207260941563355 ], [ -98.915779222281628, 19.206566440860421 ], [ -98.912633542627162, 19.203951849978786 ], [ -98.909937245780483, 19.202195171730185 ], [ -98.907608625776518, 19.2012555531321 ], [ -98.905484270685193, 19.201623229974828 ], [ -98.904585505069633, 19.203870144013734 ], [ -98.903278209628809, 19.207342647528407 ], [ -98.902256885065668, 19.212898653151882 ], [ -98.899397176288886, 19.215349832103414 ], [ -98.894208847508111, 19.21951683632102 ], [ -98.893228375927507, 19.222376545097806 ], [ -98.88934734258757, 19.227728285808656 ], [ -98.882565747488329, 19.230914818445648 ], [ -98.877173153794956, 19.234795851785577 ], [ -98.872556766769591, 19.238268355300249 ], [ -98.872761031682217, 19.241863417762499 ], [ -98.871208618346245, 19.244396302679082 ], [ -98.867041614128638, 19.247092599525768 ], [ -98.863446551666385, 19.250483397075389 ], [ -98.861975844295472, 19.255263196030878 ], [ -98.859933195169191, 19.257060727262004 ], [ -98.857972252007968, 19.257060727262004 ], [ -98.856746662532188, 19.258082051825141 ], [ -98.855929602881687, 19.259716171126165 ], [ -98.856869221479769, 19.261105172532034 ], [ -98.857767987095329, 19.26306611569326 ], [ -98.85637898568946, 19.265394735697217 ], [ -98.854418042528238, 19.264577676046706 ], [ -98.853029041122369, 19.265108764819537 ], [ -98.853069894104891, 19.266211795347729 ], [ -98.8554802200739, 19.267110560963289 ], [ -98.855030837266128, 19.268785533246838 ], [ -98.853846100772884, 19.270664770443013 ], [ -98.851885157611648, 19.272094624831407 ], [ -98.85033274427569, 19.273034243429496 ], [ -98.850332744275704, 19.149862501114949 ], [ -99.299552140126664, 19.149535677254743 ], [ -99.299388728196561, 19.599653838721288 ] ] ], [ [ [ -99.082724935372113, 19.441409810908556 ], [ -99.078312813259359, 19.441736634768759 ], [ -99.078312813259359, 19.439122043887124 ], [ -99.080437168350684, 19.438468396166716 ], [ -99.083541995022628, 19.436997688795795 ], [ -99.08599317397416, 19.434056274053955 ], [ -99.086646821694572, 19.435853805285081 ], [ -99.085666350113954, 19.438795220026918 ], [ -99.082724935372113, 19.441409810908556 ] ] ], [ [ [ -98.959103810249744, 19.544114208977788 ], [ -98.957959926739022, 19.544155061960314 ], [ -98.957837367791441, 19.541744735991308 ], [ -98.959185516214788, 19.542643501606868 ], [ -98.959103810249744, 19.544114208977788 ] ] ], [ [ [ -98.955141070944762, 19.552162246535325 ], [ -98.953098421818481, 19.552815894255733 ], [ -98.951709420412612, 19.55044642126925 ], [ -98.9540788933991, 19.549465949688635 ], [ -98.955141070944762, 19.552162246535325 ] ] ], [ [ [ -99.030719088617104, 19.379599248347397 ], [ -99.026143554574247, 19.37853707080173 ], [ -99.0228753159722, 19.377229775360913 ], [ -99.021042038381239, 19.375074780532596 ], [ -99.022701690796325, 19.374040689412428 ], [ -99.024090692202194, 19.372426996602666 ], [ -99.024989457817753, 19.371385245548264 ], [ -99.026031208872155, 19.37024136203755 ], [ -99.027215945365398, 19.370220935546286 ], [ -99.028339402384844, 19.370200509055024 ], [ -99.029850962738294, 19.370588612389017 ], [ -99.030545463441229, 19.371630363443419 ], [ -99.031607640986891, 19.372672114497821 ], [ -99.033221333796661, 19.373468747657071 ], [ -99.0351209974841, 19.373673012569697 ], [ -99.035325262396725, 19.37479646958915 ], [ -99.034773747132633, 19.375899500117342 ], [ -99.032649392041293, 19.377860443278568 ], [ -99.030719088617104, 19.379599248347397 ] ] ], [ [ [ -98.92578240278813, 19.599738822645001 ], [ -98.850394023749402, 19.599755971177608 ], [ -98.850349815705329, 19.275195247054889 ], [ -98.851251936382425, 19.275546701854807 ], [ -98.85255923182325, 19.276731438348051 ], [ -98.854356763054369, 19.279917970985043 ], [ -98.855051263757304, 19.28167464923364 ], [ -98.859504238852594, 19.281592943268588 ], [ -98.860688975345838, 19.284207534150227 ], [ -98.863589537105142, 19.284779475905584 ], [ -98.865387068336275, 19.286862978014387 ], [ -98.864651714650805, 19.289436715913496 ], [ -98.864406596755643, 19.29323604328837 ], [ -98.865795598161512, 19.295605516274854 ], [ -98.868328483078088, 19.29830181312154 ], [ -98.868818718868397, 19.299935932422564 ], [ -98.869308954658706, 19.302877347164401 ], [ -98.869227248693647, 19.307452881207265 ], [ -98.871678427645193, 19.309413824368491 ], [ -98.875028372212284, 19.309740648228697 ], [ -98.876580785548256, 19.310884531739411 ], [ -98.876580785548256, 19.313254004725895 ], [ -98.878296610814331, 19.315541771747323 ], [ -98.881238025556172, 19.31660394929299 ], [ -98.882381909066879, 19.31807465666391 ], [ -98.880829495730922, 19.320035599825136 ], [ -98.882790438892144, 19.320934365440699 ], [ -98.885078205913572, 19.321424601231005 ], [ -98.896435335055671, 19.321669719126159 ], [ -98.897579218566392, 19.320607541580493 ], [ -98.903625459980177, 19.317421008943501 ], [ -98.906485168756959, 19.316767361223093 ], [ -98.909671701393961, 19.314316182271558 ], [ -98.912041174380434, 19.311701591389923 ], [ -98.913593587716406, 19.312191827180229 ], [ -98.914655765262069, 19.313417416655998 ], [ -98.91620817859804, 19.31227353314528 ], [ -98.918577651584528, 19.310149178053951 ], [ -98.921028830536059, 19.31153817945982 ], [ -98.924787304928415, 19.31227353314528 ], [ -98.927320189844977, 19.314724712096812 ], [ -98.928709191250846, 19.318810010349367 ], [ -98.933529843188865, 19.319381952104724 ], [ -98.933529843188865, 19.322159954916462 ], [ -98.940801674078401, 19.322159954916462 ], [ -98.940965086008504, 19.324120898077691 ], [ -98.940965086008504, 19.327062312819528 ], [ -98.942027263554181, 19.32935007984096 ], [ -98.944151618645506, 19.330085433526421 ], [ -98.945377208121272, 19.332700024408055 ], [ -98.947583269177642, 19.334170731778975 ], [ -98.949625918303923, 19.336867028625662 ], [ -98.950279566024335, 19.339890149332554 ], [ -98.951750273395248, 19.341442562668526 ], [ -98.952975862871028, 19.342668152144292 ], [ -98.955672159717722, 19.340053561262657 ], [ -98.957878220774091, 19.33588655704505 ], [ -98.959594046040166, 19.332291494582801 ], [ -98.961064753411094, 19.329513491771063 ], [ -98.964823227803436, 19.324611133867997 ], [ -98.96743781868507, 19.32117948333585 ], [ -98.968009760440438, 19.318564892454216 ], [ -98.967601230615173, 19.313580828586097 ], [ -98.969643879741454, 19.312028415250129 ], [ -98.972912118343501, 19.311293061564669 ], [ -98.974709649574621, 19.31153817945982 ], [ -98.978059594141712, 19.309577236298594 ], [ -98.978876653792227, 19.307534587172317 ], [ -98.978876653792227, 19.306063879801396 ], [ -98.980919302918508, 19.304348054535325 ], [ -98.983452187835098, 19.302877347164404 ], [ -98.984677777310864, 19.300017638387615 ], [ -98.987047250297337, 19.297893283296286 ], [ -98.990724018724634, 19.297484753471032 ], [ -98.993502021536372, 19.297403047505981 ], [ -98.995626376627712, 19.296912811715675 ], [ -98.997750731719037, 19.298628636981746 ], [ -98.998894615229744, 19.299854226457516 ], [ -99.000201910670569, 19.298383519086595 ], [ -99.001999441901688, 19.299118872772056 ], [ -99.002734795587159, 19.300834698038127 ], [ -99.004123796993028, 19.301488345758536 ], [ -99.005676210328986, 19.299854226457516 ], [ -99.006656681909604, 19.299445696632258 ], [ -99.007963977350428, 19.300752992073075 ], [ -99.013356571043801, 19.300834698038127 ], [ -99.015072396309876, 19.301815169618742 ], [ -99.016216279820597, 19.303449288919765 ], [ -99.020546695968306, 19.304429760500376 ], [ -99.022671051059632, 19.30532852611594 ], [ -99.024795406150957, 19.307289469277165 ], [ -99.026674643347135, 19.30826994085778 ], [ -99.030841647564742, 19.308024822962626 ], [ -99.034273298096892, 19.308351646822832 ], [ -99.034926945817304, 19.309985766123852 ], [ -99.036887888978526, 19.309413824368495 ], [ -99.039175655999955, 19.307616293137372 ], [ -99.04089148126603, 19.3060638798014 ], [ -99.043506072147665, 19.307452881207269 ], [ -99.045467015308887, 19.308106528927677 ], [ -99.048571841980831, 19.30753458717232 ], [ -99.05167666865276, 19.30753458717232 ], [ -99.054372965499454, 19.307943116997574 ], [ -99.056415614625735, 19.307452881207269 ], [ -99.058948499542311, 19.307452881207269 ], [ -99.061236266563753, 19.306308997696551 ], [ -99.062380150074461, 19.304511466465428 ], [ -99.063033797794873, 19.301243227863385 ], [ -99.062625267969622, 19.298138401191441 ], [ -99.061644796389004, 19.296504281890421 ], [ -99.062298444109416, 19.295768928204961 ], [ -99.063442327620123, 19.296994517680726 ], [ -99.063932563410432, 19.298383519086595 ], [ -99.064831329025992, 19.299935932422567 ], [ -99.065321564816301, 19.30173346365369 ], [ -99.064259387270639, 19.304348054535325 ], [ -99.061889914284151, 19.307371175242217 ], [ -99.059683853227781, 19.31137476752972 ], [ -99.059602147262723, 19.314397888236613 ], [ -99.057477792171397, 19.318646598419267 ], [ -99.055190025149969, 19.321179483335854 ], [ -99.051186432862465, 19.322159954916465 ], [ -99.048245018120625, 19.322323366846568 ], [ -99.046284074959388, 19.324120898077695 ], [ -99.045793839169093, 19.329595197736118 ], [ -99.044323131798166, 19.331719552827447 ], [ -99.041218305126222, 19.332046376687654 ], [ -99.038440302314484, 19.333108554233316 ], [ -99.03656106511832, 19.334579261604237 ], [ -99.034191592131833, 19.334497555639185 ], [ -99.031331883355037, 19.337765794241228 ], [ -99.029942881949168, 19.338991383716998 ], [ -99.02332469878003, 19.338827971786895 ], [ -99.023242992815, 19.340625503018021 ], [ -99.024060052465501, 19.342586446179247 ], [ -99.022752757024691, 19.344710801270576 ], [ -99.020546695968306, 19.347325392152211 ], [ -99.018667458772128, 19.346426626536648 ], [ -99.017196751401215, 19.34585468478129 ], [ -99.014827278414728, 19.346590038466751 ], [ -99.012866335253491, 19.350757042684357 ], [ -99.010578568232063, 19.3540252812864 ], [ -99.008372507175679, 19.355577694622372 ], [ -99.005022562608588, 19.355495988657321 ], [ -99.000610440495834, 19.356313048307833 ], [ -98.997097083998625, 19.357048401993293 ], [ -98.99276666785093, 19.357048401993293 ], [ -98.988844781528471, 19.355741106552475 ], [ -98.986393602576939, 19.354760634971861 ], [ -98.98116442081367, 19.354760634971861 ], [ -98.976752298700902, 19.355495988657321 ], [ -98.972912118343501, 19.355495988657321 ], [ -98.969643879741454, 19.354433811111658 ], [ -98.965068345698597, 19.35165580829992 ], [ -98.961473283236344, 19.351165572509615 ], [ -98.959103810249871, 19.353780163391249 ], [ -98.956570925333281, 19.355577694622372 ], [ -98.955100217962368, 19.361297112175951 ], [ -98.955181923927427, 19.365382410428506 ], [ -98.953792922521558, 19.369957944471366 ], [ -98.954283158311853, 19.375105420269588 ], [ -98.955835571647825, 19.379272424487194 ], [ -98.959103810249871, 19.382949192914495 ], [ -98.962126930956771, 19.38776984485251 ], [ -98.968336584300644, 19.389975905908891 ], [ -98.970951175182279, 19.390221023804042 ], [ -98.972830412378457, 19.391773437140014 ], [ -98.974709649574635, 19.394306322056597 ], [ -98.975445003260091, 19.398064796448949 ], [ -98.976016945015445, 19.401659858911199 ], [ -98.976997416596063, 19.409421925591055 ], [ -98.974464531679473, 19.413834047703816 ], [ -98.971931646762897, 19.417674228061216 ], [ -98.965150051663656, 19.421187584558414 ], [ -98.957796514809047, 19.42241317403418 ], [ -98.953874628486602, 19.422004644208926 ], [ -98.948808858653436, 19.421187584558414 ], [ -98.944396736540668, 19.420533936838005 ], [ -98.942108969519239, 19.419144935432136 ], [ -98.940066320392958, 19.415468167004835 ], [ -98.934592020734556, 19.411791398577535 ], [ -98.928954309146022, 19.41007557331146 ], [ -98.922908067732237, 19.409258513660951 ], [ -98.919313005269998, 19.410484103136717 ], [ -98.916208178598055, 19.412445046297943 ], [ -98.913430175786317, 19.415468167004835 ], [ -98.913430175786317, 19.418001051921419 ], [ -98.914574059297024, 19.420697348768105 ], [ -98.913920411576612, 19.426580178251786 ], [ -98.912939939995994, 19.43278983159567 ], [ -98.913593587716406, 19.440061662485217 ], [ -98.916126472632982, 19.441532369856137 ], [ -98.915554530877628, 19.445617668108692 ], [ -98.914492353331966, 19.451418791627322 ], [ -98.910488761044462, 19.454441912334211 ], [ -98.906240050861797, 19.459589388132429 ], [ -98.901827928749043, 19.465308805686007 ], [ -98.899213337867408, 19.469639221833717 ], [ -98.899049925937305, 19.473479402191117 ], [ -98.902971812259764, 19.475767169212549 ], [ -98.906240050861797, 19.479117113779644 ], [ -98.906730286652106, 19.481731704661279 ], [ -98.906975404547268, 19.485245061158476 ], [ -98.905749815071488, 19.488840123620726 ], [ -98.90387057787531, 19.492516892048023 ], [ -98.9025632824345, 19.498399721531705 ], [ -98.900684045238322, 19.500360664692931 ], [ -98.894310979964331, 19.502648431714363 ], [ -98.888428150480649, 19.505017904700843 ], [ -98.884342852228102, 19.50706055382712 ], [ -98.882218497136748, 19.513433619101107 ], [ -98.882953850822219, 19.518907918759531 ], [ -98.884996499948485, 19.522176157361574 ], [ -98.885650147668898, 19.524709042278158 ], [ -98.883525792577572, 19.526424867544232 ], [ -98.88377091047272, 19.530019930006482 ], [ -98.884179440297984, 19.533451580538628 ], [ -98.884914793983441, 19.537046643000878 ], [ -98.886222089424251, 19.539007586162104 ], [ -98.88663061924953, 19.546361123016705 ], [ -98.886467207319427, 19.551181774954721 ], [ -98.88622208942428, 19.556737780578196 ], [ -98.887447678900031, 19.560904784795802 ], [ -98.887856208725282, 19.565480318838663 ], [ -98.888754974340856, 19.569974146916476 ], [ -98.890797623467122, 19.573487503413673 ], [ -98.892186624872991, 19.576428918155511 ], [ -98.892513448733197, 19.580269098512915 ], [ -98.892758566628359, 19.582230041674141 ], [ -98.896353629090612, 19.583455631149906 ], [ -98.899703573657703, 19.583619043080009 ], [ -98.901419398923778, 19.585089750450926 ], [ -98.906485168756944, 19.585661692206287 ], [ -98.908936347708476, 19.585906810101438 ], [ -98.912776528065876, 19.587377517472358 ], [ -98.916780120353408, 19.590400638179247 ], [ -98.919721535095235, 19.593750582746345 ], [ -98.922336125976884, 19.59562981994252 ], [ -98.92527754071871, 19.5978358809989 ], [ -98.92578240278813, 19.599738822645001 ] ] ] ] } }
]
}
